,county,license_number,operation_type,establishment_type,entity_name,dba_name,street_number,street_name,city,state,zip_code,square_footage,location,latitude,longitude
4893,Erie,723545,Store,A     ,14TH STREET CORNER MART INC      ,14TH STREET CORNER MART,294,VERMONT ST                   ,BUFFALO,NY,14213,900,"294 vermont st buffalo, ny 14213 42.907995, -78.888062",42.907995,-78.888062
4895,Erie,729653,Store,JAC   ,OBAID ANMAR A                    ,50 50 EXPRESS MART,3209,BAILEY AVE                  ,BUFFALO,NY,14215,1800,"3209 bailey ave buffalo, ny 14215 42.942128, -78.813657",42.942128,-78.813657
4896,Erie,718881,Store,JAC   ,716 FOOD MART LLC                ,716 FOOD MART,389,FILMORE AVE                  ,BUFFALO,NY,14206,3000,"389 filmore ave buffalo, ny 14206 42.883813, -78.839226",42.883813,-78.839226
4902,Erie,142951,Store,JAC   ,7-ELEVEN INC                     ,7-ELEVEN #35127,398,DINGENS ST               ,BUFFALO,NY,14206,3000,"398 dingens st buffalo, ny 14206 42.877731, -78.800948",42.877731,-78.800948
4903,Erie,142950,Store,JAC   ,7-ELEVEN INC                     ,7-ELEVEN #35128,975,ABBOTT RD                ,BUFFALO,NY,14220,3000,"975 abbott rd buffalo, ny 14220 42.837846, -78.807441",42.837846,-78.807441
4904,Erie,143012,Store,JAC   ,7-ELEVEN INC                     ,7-ELEVEN #35129,1650,KENSINGTON AVE          ,CHEEKTOWAGA,NY,14225,3500,"1650 kensington ave cheektowaga, ny 14225 42.945148, -78.795961",42.945148,-78.795961
4905,Erie,143019,Store,JAC   ,7-ELEVEN INC                     ,7-ELEVEN #35130,1095,LOVEJOY ST              ,BUFFALO,NY,14206,3000,"1095 lovejoy st buffalo, ny 14206 42.889749, -78.807809",42.889749,-78.807809
4906,Erie,142981,Store,JAC   ,7-ELEVEN INC                     ,7-ELEVEN #35131,1971,S PARK AVE              ,BUFFALO,NY,14220,3660,"1971 s park ave buffalo, ny 14220 42.845121, -78.823721",42.845121,-78.823721
4907,Erie,143009,Store,JAC   ,7-ELEVEN INC                     ,7-ELEVEN #35132,2406,S PARK AVE              ,BUFFALO,NY,14220,5200,"2406 s park ave buffalo, ny 14220 42.833156, -78.823889",42.833156,-78.823889
4909,Erie,143011,Store,JAC   ,7-ELEVEN INC                     ,7-ELEVEN #35135,3428,BAILEY AVE              ,BUFFALO,NY,14215,1500,"3428 bailey ave buffalo, ny 14215 42.94823, -78.813689",42.94823,-78.813689
4910,Erie,143030,Store,JAC   ,7-ELEVEN INC                     ,7-ELEVEN #35136,1055,WALDEN AVE              ,CHEEKTOWAGA,NY,14211,2500,"1055 walden ave cheektowaga, ny 14211 42.906975, -78.796759",42.906975,-78.796759
4911,Erie,142921,Store,JAC   ,7-ELEVEN INC                     ,7-ELEVEN #35138H,889,BEACH RD                 ,CHEEKTOWAGA,NY,14225,2923,"889 beach rd cheektowaga, ny 14225 42.945136, -78.760828",42.945136,-78.760828
4912,Erie,142949,Store,JAC   ,7-ELEVEN INC                     ,7-ELEVEN #35139,2761,HARLEM RD               ,CHEEKTOWAGA,NY,14225,3200,"2761 harlem rd cheektowaga, ny 14225 42.919028, -78.78429",42.919028,-78.78429
4913,Erie,142948,Store,JAC   ,7-ELEVEN INC                     ,7-ELEVEN #35141H,281,PARKSIDE AVE             ,BUFFALO,NY,14214,2400,"281 parkside ave buffalo, ny 14214 42.937722, -78.850648",42.937722,-78.850648
4914,Erie,142947,Store,JAC   ,7-ELEVEN INC                     ,7-ELEVEN #35143,3211,MAIN ST                 ,BUFFALO,NY,14214,2500,"3211 main st buffalo, ny 14214 42.951308, -78.825777",42.951308,-78.825777
4915,Erie,142946,Store,JAC   ,7-ELEVEN INC                     ,7-ELEVEN #35145,304,ELMWOOD AVE              ,BUFFALO,NY,14222,2800,"304 elmwood ave buffalo, ny 14222 42.905248, -78.87713",42.905248,-78.87713
4916,Erie,142945,Store,JAC   ,7-ELEVEN INC                     ,7-ELEVEN #35146,537,POTTER RD                ,WEST SENECA,NY,14220,3500,"537 potter rd west seneca, ny 14220",,
4917,Erie,142989,Store,JAC   ,7-ELEVEN INC                     ,7-ELEVEN #35147,601,PROSPECT AVE             ,BUFFALO,NY,14213,2600,"601 prospect ave buffalo, ny 14213 42.903277, -78.892381",42.903277,-78.892381
4923,Erie,704359,Store,JAC   ,7-ELEVEN INC                     ,7-ELEVEN #35157H,43,LINCOLN PARK DR           ,TONAWANDA,NY,14223,3000,"43 lincoln park dr tonawanda, ny 14223 42.971626, -78.831786",42.971626,-78.831786
4925,Erie,142920,Store,JAC   ,7-ELEVEN INC                     ,7-ELEVEN #35161H,741,KENMORE AVE              ,BUFFALO,NY,14223,2500,"741 kenmore ave buffalo, ny 14223 42.958513, -78.845226",42.958513,-78.845226
4926,Erie,702154,Store,JAC   ,7 ELEVEN INC                     ,7-ELEVEN #35165,171,GRANT ST                 ,BUFFALO,NY,14213,1900,"171 grant st buffalo, ny 14213 42.918793, -78.890557",42.918793,-78.890557
4928,Erie,143044,Store,JAC   ,7-ELEVEN INC                     ,7-ELEVEN #35176,2275,GENESEE ST              ,BUFFALO,NY,14211,2000,"2275 genesee st buffalo, ny 14211 42.918358, -78.799435",42.918358,-78.799435
4929,Erie,142919,Store,JAC   ,7-ELEVEN INC                     ,7-ELEVEN #35177H,755,DICK RD                  ,CHEEKTOWAGA,NY,14225,4000,"755 dick rd cheektowaga, ny 14225 42.922884, -78.740666",42.922884,-78.740666
4933,Erie,142980,Store,JAC   ,7-ELEVEN INC                     ,7-ELEVEN #35231H,481,ABBOTT RD                ,BUFFALO,NY,14220,4000,"481 abbott rd buffalo, ny 14220 42.849807, -78.814475",42.849807,-78.814475
4934,Erie,142983,Store,JAC   ,7-ELEVEN INC                     ,7-ELEVEN #35236H,460,HERTEL AVE               ,BUFFALO,NY,14207,2500,"460 hertel ave buffalo, ny 14207 42.946191, -78.891067",42.946191,-78.891067
4935,Erie,142988,Store,JAC   ,7-ELEVEN INC                     ,7-ELEVEN #35238,959,NIAGARA ST               ,BUFFALO,NY,14213,2000,"959 niagara st buffalo, ny 14213 42.909308, -78.899734",42.909308,-78.899734
4939,Erie,140779,Store,JAC   ,7-ELEVEN INC                     ,7-ELEVEN #35243H,2065,DELAWARE AVE            ,BUFFALO,NY,14216,2800,"2065 delaware ave buffalo, ny 14216 42.940255, -78.86763",42.940255,-78.86763
4944,Erie,731637,Store,JAC   ,HMIR LLC                         ,7 ELEVEN STORE #34662B,3550,GENESEE ST            ,BUFFALO,NY,14225,2500,"3550 genesee st buffalo, ny 14225 42.927149, -78.753764",42.927149,-78.753764
4947,Erie,725489,Store,JAC   ,MRF USA LLC                      ,7 ELEVEN STORE #35148A,2078,NIAGARA STREET              ,BUFFALO,NY,14207,2200,"2078 niagara street buffalo, ny 14207 42.940831, -78.905481",42.940831,-78.905481
4949,Erie,724600,Store,JAC   ,VEGA EXECUTIVE INC               ,7 ELEVEN STORE 35162A,2458,DELAWARE AVE                ,BUFFALO,NY,14216,2200,"2458 delaware ave buffalo, ny 14216 42.951338, -78.868867",42.951338,-78.868867
4950,Erie,725717,Store,JAC   ,VD FOODS INC                     ,7 ELEVEN STORE #35163A,782,ELMWOOD AVE                  ,BUFFALO,NY,14222,3500,"782 elmwood ave buffalo, ny 14222 42.918384, -78.877027",42.918384,-78.877027
4951,Erie,730433,Store,JAC   ,SUFIYAN INC                      ,7 ELEVEN STORE #35166A,584,ONTARIO STREET         ,BUFFALO,NY,14207,4000,"584 ontario street buffalo, ny 14207 42.958909, -78.895193",42.958909,-78.895193
4956,Erie,731061,Store,JAC   ,AADI-BHAGAT LLC                  ,7 ELEVEN STORE #36018A,5100,GENESEE STREET        ,BUFFALO,NY,14225,4000,"5100 genesee street buffalo, ny 14225 42.937802, -78.697477",42.937802,-78.697477
4963,Erie,142715,Store,A     ,PARK SEUNGIK                     ,ABBOTT CONVENIENCE STOR,1849,ABBOTT RD                   ,LACKAWANNA,NY,14218,1500,"1849 abbott rd lackawanna, ny 14218 42.814424, -78.800291",42.814424,-78.800291
4964,Erie,140168,Store,JAC   ,NGUYEN HUY THE                   ,A CHAU ORIENTAL FD&GIFT,833,NIAGARA ST                   ,BUFFALO,NY,14213,2000,"833 niagara st buffalo, ny 14213 42.905887, -78.896503",42.905887,-78.896503
4966,Erie,719890,Store,JAC   ,ADEN GOLDEN ARROW INC            ,ADEN GOLDEN ARROW,1351,KENSINGTON AVE              ,BUFFALO,NY,14215,0,"1351 kensington ave buffalo, ny 14215 42.94112, -78.805875",42.94112,-78.805875
4967,Erie,728540,Store,JAC   ,ADEN MINI MART & DELI INC        ,ADEN MINI MART & DELI,1517,BROADWAY STREET             ,BUFFALO,NY,14212,1800,"1517 broadway street buffalo, ny 14212 42.896341, -78.81854",42.896341,-78.81854
4968,Erie,716737,Store,A     ,BUFFALO VARIETY CONVENIENCE S INC,A DOLLAR,350,MAIN ST SPC 1 M42            ,BUFFALO,NY,14202,2000,"350 main st buffalo, ny 14202 42.883607, -78.875049",42.883607,-78.875049
4972,Erie,142733,Store,JAC   ,AFRICAN MARKET CENTER INC        ,AFRICAN MARKET CENTER,355,GRANT ST                     ,BUFFALO,NY,14213,2000,"355 grant st buffalo, ny 14213 42.923741, -78.889907",42.923741,-78.889907
4975,Erie,143049,Store,A     ,ALASRI MUSSED MANA NAGI          ,ALASRI DELI,4,THOMAS ST                      ,BUFFALO,NY,14206,800,"4 thomas st buffalo, ny 14206 42.881277, -78.835677",42.881277,-78.835677
4976,Erie,704853,Store,JAC   ,ALAWDI NABIL M                   ,ALAWDE FOOD MART,471,E FERRY ST               ,BUFFALO,NY,14208,2000,"471 e ferry st buffalo, ny 14208 42.914701, -78.846462",42.914701,-78.846462
4977,Erie,721844,Store,JAC   ,ALBERMAN INTERNATIONAL FOOD INC  ,ALBERMAN INTERNATIONAL,1590,ABBOTT RD                   ,BUFFALO,NY,14218,900,"1590 abbott rd buffalo, ny 14218 42.821483, -78.802162",42.821483,-78.802162
4978,Erie,140109,Store,JABH  ,COHENS BAKERY INC                ,AL COHENS RYE BREAD BKY,1132,BROADWAY                    ,BUFFALO,NY,14212,25000,"1132 broadway buffalo, ny 14212 42.894298, -78.832803",42.894298,-78.832803
4985,Erie,141395,Store,A     ,ALDI INC                         ,ALDI 74,1820,SHERIDAN DR                 ,BUFFALO,NY,14223,10000,"1820 sheridan dr buffalo, ny 14223 42.980955, -78.867364",42.980955,-78.867364
4988,Erie,141962,Store,A     ,ALDI INC                         ,ALDI 80,2090,ELMWOOD AVE                 ,BUFFALO,NY,14207,4000,"2090 elmwood ave buffalo, ny 14207 42.954283, -78.87836",42.954283,-78.87836
4989,Erie,140124,Store,A     ,ALDI INC                         ,ALDI 85,1685,WALDEN AVE                  ,CHEEKTOWAGA,NY,14225,17000,"1685 walden ave cheektowaga, ny 14225 42.907786, -78.775339",42.907786,-78.775339
4993,Erie,141342,Store,A     ,ALDI INC                         ,ALDI 97,3060,MAIN ST                     ,BUFFALO,NY,14214,15000,"3060 main st buffalo, ny 14214 42.948152, -78.829353",42.948152,-78.829353
4995,Erie,703192,Store,A     ,ALDI INC                         ,ALDI STORE #84,998,BROADWAY ST                  ,BUFFALO,NY,14212,3000,"998 broadway st buffalo, ny 14212 42.893504, -78.836893",42.893504,-78.836893
4997,Erie,721852,Store,JAC   ,ALFY'S 2 FOOD MARKET INC         ,ALFYS II FOOD MARKET,160,DOAT ST                      ,BUFFALO,NY,14211,1200,"160 doat st buffalo, ny 14211 42.909761, -78.814916",42.909761,-78.814916
4999,Erie,142936,Store,JAC   ,ALMADHRAHI ALI H                 ,AL-KADI MARKET,2044,SOUTH PARK AVE          ,BUFFALO,NY,14220,600,"2044 south park ave buffalo, ny 14220 42.843026, -78.82374",42.843026,-78.82374
5001,Erie,140473,Store,JABC  ,BAP GROUP INC                    ,ALLENTOWN TRADING CO,553,DELAWARE AVE                 ,BUFFALO,NY,14202,1000,"553 delaware ave buffalo, ny 14202 42.899254, -78.874001",42.899254,-78.874001
5002,Erie,710885,Store,JAC   ,AL-MADINA VARIETY STORE INC      ,AL-MADINA VARIETY STORE,1044,FILLMORE                    ,BUFFALO,NY,14211,1500,"1044 fillmore buffalo, ny 14211 42.901705, -78.839299",42.901705,-78.839299
5003,Erie,142075,Store,JAC   ,BERMAN NAGI                      ,AL-NOOR GROCERY,1200,HERTEL ST                   ,BUFFALO,NY,14216,1000,"1200 hertel st buffalo, ny 14216 42.947749, -78.863523",42.947749,-78.863523
5005,Erie,708029,Store,JAC   ,MEISTER ALEXANDER A              ,ALS KWIK STOP,92,FRANKLIN ST               ,BUFFALO,NY,14202,500,"92 franklin st buffalo, ny 14202 42.883268, -78.877509",42.883268,-78.877509
5006,Erie,140052,Store,A     ,ALAHRAG AHMED ALI                ,ALS SHORT STOP GROCERY,2717,S PARK AVE                  ,LACKAWANNA,NY,14218,6000,"2717 s park ave lackawanna, ny 14218 42.826084, -78.824014",42.826084,-78.824014
5007,Erie,728256,Store,JAC   ,AMANA MULTI TRADE INC            ,AMANA PLAZA HALAL FOOD,1054,BROADWAY              ,BUFFALO,NY,14212,1000,"1054 broadway buffalo, ny 14212 42.893749, -78.835734",42.893749,-78.835734
5010,Erie,142684,Store,JAC   ,AMHERST FOOD EXPRESS INC         ,AMHERST FOOD EXPRESS,72,E AMHERST ST                  ,BUFFALO,NY,14214,2500,"72 e amherst st buffalo, ny 14214 42.940219, -78.835206",42.940219,-78.835206
5011,Erie,142661,Store,JAC   ,AM PM GAS MART INC               ,AM PM GAS MART,1440,KENSINGTON AVE              ,BUFFALO,NY,14215,2000,"1440 kensington ave buffalo, ny 14215 42.942355, -78.802842",42.942355,-78.802842
5012,Erie,141828,Store,JAC   ,AN CHAU ASIAN MARKET INC         ,AN CHAU ORIENTAL FOODS,3306,BAILEY AVE                  ,BUFFALO,NY,14215,3000,"3306 bailey ave buffalo, ny 14215 42.94488, -78.813668",42.94488,-78.813668
5015,Erie,723343,Store,JAC   ,ANY CORNER INC                   ,ANY CORNER,650,TONAWANDA ST                 ,BUFFALO,NY,14207,1600,"650 tonawanda st buffalo, ny 14207 42.946589, -78.902205",42.946589,-78.902205
5016,Erie,727175,Store,JAC   ,AOEN FOOD & GAS MART INC         ,AOEN FOOD & GAS MART,1635,KENSINGTON AVE              ,BUFFALO,NY,14215,1200,"1635 kensington ave buffalo, ny 14215 42.945006, -78.796312",42.945006,-78.796312
5025,Erie,733962,Store,JAC   ,7 ELEVEN INC                     ,A PLUS #40242H,432,DINGENS ST               ,BUFFALO,NY,14206,3200,"432 dingens st buffalo, ny 14206 42.877702, -78.799251",42.877702,-78.799251
5026,Erie,735226,Store,JAC   ,7-ELEVEN INC                     ,A PLUS #40250H,1329,ABBOTT RD & RIDGE ST        ,BUFFALO,NY,14218,0,"1329 abbott rd & ridge st buffalo, ny 14218",,
5031,Erie,140027,Store,JAC   ,M&BS GROUP INC                   ,APLUS MINI MARKET,4401,UNION RD                    ,CHEEKTOWAGA,NY,14225,1500,"4401 union rd cheektowaga, ny 14225 42.933315, -78.754149",42.933315,-78.754149
5032,Erie,718285,Store,JAC   ,MUDHEL AMBAR B                   ,ARBIN GROCERY & HALAL,397,CONNECTICUT ST               ,BUFFALO,NY,14213,400,"397 connecticut st buffalo, ny 14213 42.906478, -78.886436",42.906478,-78.886436
5033,Erie,705745,Store,JAC   ,AREF DELI INC                    ,AREE DELI,1059,GRANT ST                    ,BUFFALO,NY,14207,1000,"1059 grant st buffalo, ny 14207 42.940865, -78.891658",42.940865,-78.891658
5034,Erie,140403,Store,JAC   ,SALEH KHALEEL G                  ,ARND THE CLOCK EXPRS MT,1421,MAIN ST                     ,BUFFALO,NY,14209,1500,"1421 main st buffalo, ny 14209 42.912273, -78.865573",42.912273,-78.865573
5038,Erie,142541,Store,JAC   ,AD ASIAN VARIETY MART INC        ,ASIAN VARIETY MART,977,SYCAMORE ST                  ,BUFFALO,NY,14212,1500,"977 sycamore st buffalo, ny 14212 42.898834, -78.835474",42.898834,-78.835474
5039,Erie,721945,Store,JAC   ,ASIA SUPER BAZAAR INC            ,ASIA SUPER BAZAAR,294,W FERRY STREET               ,BUFFALO,NY,14213,2000,"294 w ferry street buffalo, ny 14213 42.915271, -78.89069",42.915271,-78.89069
5040,Erie,140342,Store,JAD   ,THEODORE M. ATTEA INC            ,ATTEAS,1509,CLINTON ST                  ,BUFFALO,NY,14206,40000,"1509 clinton st buffalo, ny 14206 42.872283, -78.820624",42.872283,-78.820624
5041,Erie,730478,Store,JAC   ,KHULAQI JAMAL A                  ,AUBURN EXPRESS MART,412,AUBURN AVENUE                ,BUFFALO,NY,14213,0,"412 auburn avenue buffalo, ny 14213 42.918532, -78.88547",42.918532,-78.88547
5043,Erie,141052,Store,JAC   ,IGNATOWSKI TERESA                ,BABCIAS DELI,1972,CLINTON ST                  ,BUFFALO,NY,14206,600,"1972 clinton st buffalo, ny 14206 42.871801, -78.803605",42.871801,-78.803605
5044,Erie,724623,Store,JAC   ,BABICIAS PIEROGI LLC             ,BABICIAS PIEROGI,999,BROADWAY                 ,BUFFALO,NY,14212,495,"999 broadway buffalo, ny 14212 42.893309, -78.837813",42.893309,-78.837813
5046,Erie,713284,Store,JAC   ,NASSER MOKHTAR SALEH             ,BAILEY 1 STOP SHOP,2906,BAILEY AVE                  ,BUFFALO,NY,14215,1500,"2906 bailey ave buffalo, ny 14215 42.933837, -78.813654",42.933837,-78.813654
5047,Erie,707149,Store,JAC   ,BAILEY EXPRESS FOOD MARKET INC   ,BAILEY EXPRESS FOOD MAR,2756,BAILEY AVE                  ,BUFFALO,NY,14215,1800,"2756 bailey ave buffalo, ny 14215 42.930046, -78.813662",42.930046,-78.813662
5048,Erie,141333,Store,A     ,ALAWBALI ABDULLA                 ,BAILEY EXPRESS MARKET,3343,BAILEY AVE                  ,BUFFALO,NY,14215,1500,"3343 bailey ave buffalo, ny 14215 42.945975, -78.813679",42.945975,-78.813679
5049,Erie,732178,Store,JAC   ,BAILEY MARKET & DELI INC         ,BAILEY MARKET & DELI,2594,BAILEY AVE                  ,BUFFALO,NY,14215,1700,"2594 bailey ave buffalo, ny 14215 42.925304, -78.813676",42.925304,-78.813676
5050,Erie,142347,Store,JAC   ,LHK ENTERPRISES INC              ,BAILEY MINI-MARKET,1245,BAILEY AVE                  ,BUFFALO,NY,14206,2700,"1245 bailey ave buffalo, ny 14206 42.888278, -78.814191",42.888278,-78.814191
5051,Erie,148540,Store,JACH  ,BAILEY SEAFOOD                   ,BAILEY SEAFOOD,3316,BAILEY AVE                  ,BUFFALO,NY,14215,4000,"3316 bailey ave buffalo, ny 14215 42.945159, -78.813671",42.945159,-78.813671
5054,Erie,734144,Store,JAC   ,BALANCED BODY BY JADA BLITZ      ,BALANCED BODY FOODS,1391,HERTEL AVENUE               ,BUFFALO,NY,14216,1000,"1391 hertel avenue buffalo, ny 14216 42.947706, -78.856649",42.947706,-78.856649
5055,Erie,719705,Store,JAC   ,MARVIN ROY JAMES                 ,BARREL & BRINE,257,CAROLINA ST            ,BUFFALO,NY,14213,875,"257 carolina st buffalo, ny 14213 42.893368, -78.880271",42.893368,-78.880271
5059,Erie,726869,Store,JAC   ,BEREKETAB TEWOLOE HASHO          ,B BROTHERS GROCERY,950,E FERRY STREET               ,BUFFALO,NY,14211,0,"950 e ferry street buffalo, ny 14211 42.914498, -78.828912",42.914498,-78.828912
5062,Erie,715861,Store,JAC   ,HUSSEIN SANDY S                  ,BELLA MIA CHOCOLATE SHO,1096,HERTEL AVE                  ,BUFFALO,NY,14216,1000,"1096 hertel ave buffalo, ny 14216 42.947774, -78.867587",42.947774,-78.867587
5064,Erie,142805,Store,A     ,AHMED MOHAMMED A                 ,BEST BROTHERS MARKET,235,MASSACHUSETTS AVE      ,BUFFALO,NY,14213,1500,"235 massachusetts ave buffalo, ny 14213 42.910411, -78.892509",42.910411,-78.892509
5065,Erie,141842,Store,JACD  ,BEST DEAL MINI MART INC          ,BEST DEAL MINI MART,268,AMHERST ST                   ,BUFFALO,NY,14207,1200,"268 amherst st buffalo, ny 14207 42.93689, -78.893676",42.93689,-78.893676
5067,Erie,142446,Store,A     ,MUSA ALI M                       ,BETTER BUY MARKET,2005,GENESEE ST                  ,BUFFALO,NY,14211,1000,"2005 genesee st buffalo, ny 14211 42.914825, -78.808258",42.914825,-78.808258
5068,Erie,146558,Store,A     ,870 KENMORE AVE INC              ,BEVERAGE DISCOUNT CTR,870,KENMORE AVE                  ,BUFFALO,NY,14216,5000,"870 kenmore ave buffalo, ny 14216 42.958593, -78.850662",42.958593,-78.850662
5069,Erie,710187,Store,A     ,MOHIDDIN MUSAD & YAHYA MOHAMED   ,BIG BASHA BEAUTY,845,JEFFERSON AVE                ,BUFFALO,NY,14204,2500,"845 jefferson ave buffalo, ny 14204 42.898141, -78.85397",42.898141,-78.85397
5071,Erie,712032,Store,A     ,BIG LOTS STORES INC              ,BIG LOTS #1597,2276,DELAWARE AVE            ,BUFFALO,NY,14216,45000,"2276 delaware ave buffalo, ny 14216 42.944626, -78.868141",42.944626,-78.868141
5073,Erie,712038,Store,A     ,BIG LOTS STORES INC              ,BIG LOTS #1762,698,S OGDEN ST               ,BUFFALO,NY,14206,25000,"698 s ogden st buffalo, ny 14206 42.881101, -78.801155",42.881101,-78.801155
5078,Erie,141148,Store,JAC   ,BIG PASHA MINI MARKET LLC        ,BIG PASHA MINI MARKET,418,S PARK AVE                   ,BUFFALO,NY,14204,3000,"418 s park ave buffalo, ny 14204 42.871656, -78.864078",42.871656,-78.864078
5080,Erie,142973,Store,A     ,ALAWI THABET M                   ,BILLS CORNER,318,HAMPSHIRE ST                 ,BUFFALO,NY,14213,1400,"318 hampshire st buffalo, ny 14213 42.913918, -78.890273",42.913918,-78.890273
5081,Erie,730364,Store,JAC   ,BILLS CORNER MARKET              ,BILLS CORNER MARKET,318,HAMPSHIRE ST                 ,BUFFALO,NY,14213,1300,"318 hampshire st buffalo, ny 14213 42.913918, -78.890273",42.913918,-78.890273
5082,Erie,149223,Store,JAC   ,ALJAMALI HIZAM                   ,BILLS FOOD MART,32,ALLEN ST                      ,BUFFALO,NY,14202,1500,"32 allen st buffalo, ny 14202 42.899403, -78.871325",42.899403,-78.871325
5091,Erie,148973,Store,A     ,MICHAELS BRUCE                   ,BLACK ROCK BEVERAGES,538,HERTEL AVE                   ,BUFFALO,NY,14207,3600,"538 hertel ave buffalo, ny 14207 42.946723, -78.888085",42.946723,-78.888085
5092,Erie,712189,Store,JAC   ,BLACK ROCK EXPRESS MART INC      ,BLACK ROCK EXPRESS MART,442,AMHERST ST                   ,BUFFALO,NY,14207,1100,"442 amherst st buffalo, ny 14207 42.939091, -78.887507",42.939091,-78.887507
5093,Erie,141645,Store,A     ,BLACK ROCK PHARMACY INC          ,BLACK ROCK PHARMACY,431,TONAWANDA ST                 ,BUFFALO,NY,14207,15000,"431 tonawanda st buffalo, ny 14207 42.940762, -78.899185",42.940762,-78.899185
5096,Erie,140115,Store,JAC   ,BLUE MOUNTAIN COFFEES INC        ,BLUE MOUNTAIN COFFEES,509,ELMWOOD AVE                  ,BUFFALO,NY,14222,2000,"509 elmwood ave buffalo, ny 14222 42.910935, -78.877086",42.910935,-78.877086
5099,Erie,140665,Store,A     ,THONGCHANH LANE                  ,BOO&BEE STORE,591,FARGO AVE                    ,BUFFALO,NY,14213,600,"591 fargo ave buffalo, ny 14213 42.911504, -78.898261",42.911504,-78.898261
5100,Erie,724602,Store,JACH  ,BUFFALO FERMENTATION INC         ,BOOTLEG BUCHA,1250,NIAGARA ST                  ,BUFFALO,NY,14213,300,"1250 niagara st buffalo, ny 14213 42.917921, -78.899108",42.917921,-78.899108
5106,Erie,727684,Store,JAC   ,BRIANS BEST GLUTEN FREE LLC      ,BRIANS BEST GLUTEN FREE,247,CAYUGA ROAD STE 911          ,BUFFALO,NY,14225,1700,"247 cayuga road buffalo, ny 14225 42.93526, -78.744145",42.93526,-78.744145
5108,Erie,147212,Store,JAC   ,ALSHED MARKET INC                ,B RITE MARKET,905,CLINTON ST                   ,BUFFALO,NY,14210,2500,"905 clinton st buffalo, ny 14210 42.879574, -78.840828",42.879574,-78.840828
5109,Erie,717126,Store,JAC   ,SALEMS & SONS INC                ,BROADWAY A PLUS,350,BROADWAY ST                  ,BUFFALO,NY,14204,4000,"350 broadway st buffalo, ny 14204 42.888325, -78.860683",42.888325,-78.860683
5110,Erie,142719,Store,JAC   ,RED RAYS INC                     ,BROADWAY CONVENIENCE DL,1305,BROADWAY                    ,BUFFALO,NY,14212,2000,"1305 broadway buffalo, ny 14212 42.895253, -78.826575",42.895253,-78.826575
5111,Erie,712849,Store,JAC   ,BROADWAY LUCKY MART INC          ,BROADWAY LUCKY MART,825,BROADWAY ST                  ,BUFFALO,NY,14212,2500,"825 broadway st buffalo, ny 14212 42.892047, -78.84366",42.892047,-78.84366
5112,Erie,720295,Store,A     ,BROADWAY MART & DELI INC         ,BROADWAY MART & DELI,1358,BROADWAY ST                 ,BUFFALO,NY,14212,0,"1358 broadway st buffalo, ny 14212 42.895535, -78.824662",42.895535,-78.824662
5113,Erie,730486,Store,JAC   ,BROADWAY SEAFOOD INC             ,BROADWAY SEAFOOD,999,BROADWAY STREET STAND103 ,BUFFALO,NY,14212,800,"999 broadway street buffalo, ny 14212 42.893309, -78.837813",42.893309,-78.837813
5114,Erie,732972,Store,JAC   ,BROADWAY SEAFOOD LLC             ,BROADWAY SEAFOOD,999,BROADWAY STREET STAND104     ,BUFFALO,NY,14212,500,"999 broadway street buffalo, ny 14212 42.893309, -78.837813",42.893309,-78.837813
5115,Erie,729828,Store,JAC   ,BROTHERS GROCERY AND KITCHEN INC ,BROTHERS GROCERY AND KI,426,HERTEL AVE                   ,BUFFALO,NY,14207,2000,"426 hertel ave buffalo, ny 14207 42.945908, -78.892022",42.945908,-78.892022
5116,Erie,724213,Store,JAC   ,BUFFALO BREWING COMPANY LLC      ,BUFFALO BREWING COMPANY,314,MYRTLE AVE                   ,BUFFALO,NY,14204,1200,"314 myrtle ave buffalo, ny 14204 42.87815, -78.858175",42.87815,-78.858175
5117,Erie,729746,Store,JAC   ,ZAMAN MUHAMMED & SADRUZZAMAN MUHA,BUFFALO BURMESE STORE,1076,SYCAMORE ST                 ,BUFFALO,NY,14212,900,"1076 sycamore st buffalo, ny 14212 42.899913, -78.832065",42.899913,-78.832065
5118,Erie,142390,Store,A     ,AHMED YASER N                    ,BUFFALO DISCOUNT FOOD,279,JEFFERSON AVE            ,BUFFALO,NY,14204,1000,"279 jefferson ave buffalo, ny 14204 42.882706, -78.853924",42.882706,-78.853924
5120,Erie,732758,Store,JAC   ,BUFFALO FRESH INC                ,BUFFALO FRESH,1018-1020,BROADWAY ST            ,BUFFALO,NY,14212,12000,"1018 1020 broadway st buffalo, ny 14212 42.893542, -78.836715",42.893542,-78.836715
5121,Erie,719420,Store,JAC   ,BUFFALO GROCERY & HALAL MEATS INC,BUFFALO GROCERY & HALAL,331,VERMONT ST                   ,BUFFALO,NY,14213,0,"331 vermont st buffalo, ny 14213 42.908541, -78.886968",42.908541,-78.886968
5122,Erie,731576,Store,JAC   ,BUFFALO MEATS & DELI INC         ,BUFFALO MEATS & DELI,1036,E FERRY STREET              ,BUFFALO,NY,14211,1000,"1036 e ferry street buffalo, ny 14211 42.914462, -78.825533",42.914462,-78.825533
5123,Erie,142250,Store,JAC   ,GOLDEN CORNER LLC                ,BUFFALOS GOLDEN CORNER,1715,JEFFERSON AVE               ,BUFFALO,NY,14208,1500,"1715 jefferson ave buffalo, ny 14208 42.921996, -78.853994",42.921996,-78.853994
5124,Erie,141456,Store,JAD   ,BUFFALO WHOLESALE FOODS INC      ,BUFFALO WHOLESALE FOODS,1574,KENMORE AVE                 ,BUFFALO,NY,14216,10000,"1574 kenmore ave buffalo, ny 14216 42.95865, -78.876265",42.95865,-78.876265
5125,Erie,728025,Store,JAC   ,ALKHOBARI ANEESA N               ,BUFFALO ZIP'S MARKET,896,NIAGARA STREET               ,BUFFALO,NY,14213,3000,"896 niagara street buffalo, ny 14213 42.9077, -78.898213",42.9077,-78.898213
5126,Erie,732658,Store,JAC   ,BUFF CITY MARKET INC             ,BUFF CITY MARKET,88,LISBON AVE                    ,BUFFALO,NY,14214,15000,"88 lisbon ave buffalo, ny 14214 42.948061, -78.825321",42.948061,-78.825321
5127,Erie,731119,Store,A     ,ANRE MARGARET                    ,BUNGTLA ASIAN MARKET,540,GRANT ST                     ,BUFFALO,NY,14213,1400,"540 grant st buffalo, ny 14213 42.928724, -78.889257",42.928724,-78.889257
5128,Erie,734888,Store,JAC   ,BUY FRESH HALAL INC              ,BUY FRESH HALAL,1350,FILLMORE AVENUE             ,BUFFALO,NY,14211,0,"1350 fillmore avenue buffalo, ny 14211 42.910586, -78.839075",42.910586,-78.839075
5129,Erie,147507,Store,JABC  ,PRIN SEN INC                     ,BUZ N BEE FOOD SHOPPE,2097,SENECA ST                   ,BUFFALO,NY,14210,7200,"2097 seneca st buffalo, ny 14210 42.854949, -78.809268",42.854949,-78.809268
5130,Erie,140609,Store,JAC   ,CAMELLIA GENERAL PROVISION CO INC,CAMELLIA FOODS,1333,GENESEE ST                  ,BUFFALO,NY,14211,1500,"1333 genesee st buffalo, ny 14211 42.905949, -78.830412",42.905949,-78.830412
5131,Erie,142182,Store,JAC   ,CAMELLIA GENERAL PROVISION CO INC,CAMELLIA FOODS,999,BROADWAY STAND 29            ,BUFFALO,NY,14212,1000,"999 broadway buffalo, ny 14212 42.893309, -78.837813",42.893309,-78.837813
5132,Erie,142056,Store,JAC   ,CAMS 24 CORP                     ,CAMERONS 24 HOUR STORE,1054,ELMWOOD AVE                 ,BUFFALO,NY,14222,1000,"1054 elmwood ave buffalo, ny 14222 42.92589, -78.877012",42.92589,-78.877012
5134,Erie,142070,Store,A     ,SMARTCARD OF WNY INC             ,CARD SMART,224,HIGHLAND PKWY                ,KENMORE,NY,14223,2500,"224 highland pkwy kenmore, ny 14223 42.974373, -78.857375",42.974373,-78.857375
5135,Erie,726212,Store,JAC   ,AL'S CONVENIENCE STORE INC       ,CARLS LOTTO MARKET,687,DICK ROAD                    ,BUFFALO,NY,14225,1400,"687 dick road buffalo, ny 14225 42.92181, -78.739851",42.92181,-78.739851
5136,Erie,713058,Store,JAC   ,CARUSOS ITALIAN IMPORTS LLC      ,CARUSOS ITALIAN IMPORTS,1212,HERTEL AVE                  ,BUFFALO,NY,14216,0,"1212 hertel ave buffalo, ny 14216 42.947748, -78.863417",42.947748,-78.863417
5137,Erie,143468,Store,JAD   ,TRIPIFOODS INC                   ,CASH&CARRY DEPOT,1496,WILLIAM ST                  ,BUFFALO,NY,14206,13000,"1496 william st buffalo, ny 14206 42.884792, -78.815472",42.884792,-78.815472
5138,Erie,141656,Store,JAC   ,MOTHANNA ABDULLA                 ,CAZ MINI MART,572-576,HERTEL AVE               ,BUFFALO,NY,14207,1800,"572 576 hertel ave buffalo, ny 14207 42.946871, -78.886869",42.946871,-78.886869
5139,Erie,142885,Store,JAC   ,CEDARS BAKERY LLC                ,CEDARS BAKERY,111,DINGENS ST                   ,BUFFALO,NY,14206,11000,"111 dingens st buffalo, ny 14206 42.877851, -78.811527",42.877851,-78.811527
5140,Erie,707866,Store,JAC   ,ALMONTASER SAEED S               ,CEDOS MINI MART & TAKEO,674,HOPKINS ST                   ,BUFFALO,NY,14220,500,"674 hopkins st buffalo, ny 14220 42.855841, -78.832207",42.855841,-78.832207
5141,Erie,141396,Store,A     ,LE TOM                           ,C&E MARKET,1930,GENESEE ST                  ,BUFFALO,NY,14211,3700,"1930 genesee st buffalo, ny 14211 42.913801, -78.81081",42.913801,-78.81081
5142,Erie,140866,Store,JAC   ,ALABBADI MOHAMED                 ,CHARLIES FOOD MART,927,BROADWAY                     ,BUFFALO,NY,14212,1000,"927 broadway buffalo, ny 14212 42.892766, -78.840346",42.892766,-78.840346
5143,Erie,708122,Store,JAC   ,CHATEAU BUFFALO LLC              ,CHATEAU BUFFALO,1500,CLINTON ST                  ,BUFFALO,NY,14206,3500,"1500 clinton st buffalo, ny 14206 42.872438, -78.821025",42.872438,-78.821025
5144,Erie,143055,Store,JAC   ,PEDRO TOMAS                      ,CHEZ LA CRAMER ROCK CEN,941,NIAGARA ST                   ,BUFFALO,NY,14213,0,"941 niagara st buffalo, ny 14213 42.908642, -78.899094",42.908642,-78.899094
5145,Erie,149046,Store,JAC   ,CHOCOLATE SHOP AND MORE INC THE  ,CHOCOLATE SHOP THE,871,NIAGARA ST                   ,BUFFALO,NY,14213,2100,"871 niagara st buffalo, ny 14213 42.906899, -78.897457",42.906899,-78.897457
5146,Erie,730721,Store,JAC   ,BARC INTERNATIONAL LLC           ,CHOCO-LOGO CONFECTIONER,141,BROADWAY AVE                 ,BUFFALO,NY,14203,6000,"141 broadway ave buffalo, ny 14203 42.88669, -78.868167",42.88669,-78.868167
5147,Erie,708731,Store,JABC  ,CHRUSCIKI BAKERY INC             ,CHRUSCIKI BAKERY,999,BROADWAY STAND 12      ,BUFFALO,NY,14212,200,"999 broadway buffalo, ny 14212 42.893309, -78.837813",42.893309,-78.837813
5150,Erie,720423,Store,A     ,ESFOOR MUSA                      ,CITY CANDY GROCERY,544,FARGO AVE                    ,BUFFALO,NY,14213,1500,"544 fargo ave buffalo, ny 14213 42.910459, -78.897261",42.910459,-78.897261
5151,Erie,142692,Store,A     ,CITY CENTER GROCERY INC          ,CITY CENTER GROCERY,1531,E DELAVAN AVE               ,BUFFALO,NY,14215,1500,"1531 e delavan ave buffalo, ny 14215 42.922778, -78.800007",42.922778,-78.800007
5152,Erie,141977,Store,A     ,FADDELL ABDULL M                 ,CITY CORNER FOOD PLUS,1538,FILLMORE AVE                ,BUFFALO,NY,14211,1000,"1538 fillmore ave buffalo, ny 14211 42.915585, -78.83917",42.915585,-78.83917
5153,Erie,141191,Store,JAC   ,3039 BAILEY AVE IMPERIAL MRKT INC,CITY FOOD MARKET,711,KENSINGTON AVE       ,BUFFALO,NY,14215,2500,"711 kensington ave buffalo, ny 14215 42.932675, -78.826687",42.932675,-78.826687
5154,Erie,713163,Store,JAC   ,CITY MARKET & DELI INC           ,CITY MARKET & DELI,1245,E DELAVAN AVE               ,BUFFALO,NY,14215,1250,"1245 e delavan ave buffalo, ny 14215 42.922688, -78.810948",42.922688,-78.810948
5155,Erie,142802,Store,JAC   ,SALEH NASER A                    ,CITY MAX MARKET,389,GRIDER ST                    ,BUFFALO,NY,14215,2500,"389 grider st buffalo, ny 14215 42.925312, -78.829141",42.925312,-78.829141
5156,Erie,142477,Store,JAC   ,CITY MINIMAX INC                 ,CITY MINIMAX,817,E DELAVAN AVE                ,BUFFALO,NY,14215,2000,"817 e delavan ave buffalo, ny 14215 42.922348, -78.826749",42.922348,-78.826749
5157,Erie,142464,Store,JAC   ,ROC CITY MARKET INC              ,CITYWIDE FOOD MARKET,137,MAPLE ST                     ,BUFFALO,NY,14204,4500,"137 maple st buffalo, ny 14204 42.896599, -78.863215",42.896599,-78.863215
5158,Erie,731041,Store,JAC   ,CITY WIDE II INC                 ,CITY WIDE II,137,MAPLE STREET                 ,BUFFALO,NY,14204,4500,"137 maple street buffalo, ny 14204 42.896599, -78.863215",42.896599,-78.863215
5159,Erie,719755,Store,JAC   ,SALEH EDRIS ALI                  ,CITY ZONE MARKET,860,WALDEN AVE                   ,BUFFALO,NY,14211,0,"860 walden ave buffalo, ny 14211 42.90612, -78.804424",42.90612,-78.804424
5160,Erie,141764,Store,JAC   ,630 COLVIN AVE INC               ,C&K THE CORNER STORE,630,COLVIN AVE                   ,BUFFALO,NY,14216,2500,"630 colvin ave buffalo, ny 14216 42.958053, -78.858831",42.958053,-78.858831
5164,Erie,140272,Store,A     ,BUFFALO PHARMACIES INC           ,CLEVE HILL DRUGS,1479,KENSINGTON AVE              ,BUFFALO,NY,14215,4200,"1479 kensington ave buffalo, ny 14215 42.942761, -78.801841",42.942761,-78.801841
5165,Erie,142615,Store,JAC   ,ALOKAM AHMED                     ,CLINTON EXPRESS,1270,CLINTON ST                  ,BUFFALO,NY,14206,1000,"1270 clinton st buffalo, ny 14206 42.875319, -78.828497",42.875319,-78.828497
5166,Erie,149703,Store,JABC  ,KHULAQI OBAD                     ,CLINTON MINI MARKET,1880,CLINTON ST                  ,BUFFALO,NY,14206,3500,"1880 clinton st buffalo, ny 14206 42.871853, -78.807268",42.871853,-78.807268
5167,Erie,705033,Store,JAC   ,COLD SPRING MARKET LLC           ,COLD SPRING MARKET,1304,JEFFERSON AVE               ,BUFFALO,NY,14208,2500,"1304 jefferson ave buffalo, ny 14208 42.910657, -78.853985",42.910657,-78.853985
5168,Erie,142770,Store,JAC   ,COLVIN MARKET EXPRESS LLC        ,COLVIN MARKET EXPRESS,117,COLVIN AVE                   ,BUFFALO,NY,14216,1000,"117 colvin ave buffalo, ny 14216 42.944189, -78.857082",42.944189,-78.857082
5169,Erie,142994,Store,JAE   ,COMMUNITY BEER WORKS LLC         ,COMMUNITY BEER WORKS,15,LAFAYETTE AVE                 ,BUFFALO,NY,14213,3000,"15 lafayette ave buffalo, ny 14213 42.920047, -78.897974",42.920047,-78.897974
5170,Erie,149813,Store,JAC   ,DIWAN CORP                       ,COMMUNITY FOOD&MEAT MKT,535,WALDEN AVE                   ,BUFFALO,NY,14211,6800,"535 walden ave buffalo, ny 14211 42.904505, -78.816451",42.904505,-78.816451
5171,Erie,141693,Store,JAC   ,SALEH KASIM ALI ABDULLA          ,COMSTOCK DELI&GROCERY,262,COMSTOCK AVE                 ,BUFFALO,NY,14215,1500,"262 comstock ave buffalo, ny 14215 42.943863, -78.817609",42.943863,-78.817609
5178,Erie,149931,Store,JAC   ,CONSUMERS BEVERAGES INC          ,CONSUMERS BEVERAGES,444,CAYUGA RD                    ,CHEEKTOWAGA,NY,14225,12000,"444 cayuga rd cheektowaga, ny 14225 42.942571, -78.744402",42.942571,-78.744402
5182,Erie,146696,Store,JAC   ,CONSUMERS BEVERAGES INC          ,CONSUMERS BEVERAGES,2765,GENESEE ST                  ,CHEEKTOWAGA,NY,14225,3500,"2765 genesee st cheektowaga, ny 14225 42.922629, -78.782465",42.922629,-78.782465
5185,Erie,148051,Store,JAC   ,CONSUMERS BEVERAGES INC          ,CONSUMERS BEVERAGES,1280,ABBOTT RD                   ,LACKAWANNA,NY,14218,4000,"1280 abbott rd lackawanna, ny 14218 42.829748, -78.804897",42.829748,-78.804897
5186,Erie,140211,Store,JAC   ,CONSUMERS BEVERAGES INC          ,CONSUMERS BEVERAGES,1291,HARLEM RD                   ,CHEEKTOWAGA,NY,14206,2000,"1291 harlem rd cheektowaga, ny 14206 42.877584, -78.784775",42.877584,-78.784775
5190,Erie,146431,Store,JABC  ,RICH PRODUCTS CORP               ,COOKIE,1197,NIAGARA ST          ,BUFFALO,NY,14213,3000,"1197 niagara st buffalo, ny 14213 42.91628, -78.899322",42.91628,-78.899322
5191,Erie,721564,Store,JAC   ,AJAY AMHERST INC                 ,CORNER MARKET,140,ABBOTT ROAD                  ,BUFFALO,NY,14220,2000,"140 abbott road buffalo, ny 14220 42.856166, -78.824166",42.856166,-78.824166
5194,Erie,713899,Store,JAC   ,WNY OIL INC                      ,CORNER MARKET,2323,BROADWAY                    ,BUFFALO,NY,14212,1700,"2323 broadway buffalo, ny 14212 42.899975, -78.789123",42.899975,-78.789123
5195,Erie,728566,Store,JAC   ,WNY PETROLEUM INC                ,CORNER MARKET,1241,E LOVEJOY STREET            ,BUFFALO,NY,14206,1500,"1241 e lovejoy street buffalo, ny 14206 42.889762, -78.802133",42.889762,-78.802133
5197,Erie,716066,Store,JAC   ,445 MASSACHUSETTS AVE INC        ,CORNER STOP,445,MASSACHUSETTS AVE            ,BUFFALO,NY,14213,2000,"445 massachusetts ave buffalo, ny 14213 42.913732, -78.885983",42.913732,-78.885983
5198,Erie,141172,Store,JAC   ,CORNER STORE 1 CORP THE          ,CORNER STORE THE,2050,CLINTON ST                  ,BUFFALO,NY,14206,2000,"2050 clinton st buffalo, ny 14206 42.871753, -78.80074",42.871753,-78.80074
5199,Erie,142673,Store,JAC   ,KRISHNA MARKET INC               ,CORNER STORE THE,380,CONNECTICUT ST               ,BUFFALO,NY,14213,4000,"380 connecticut st buffalo, ny 14213 42.906206, -78.886978",42.906206,-78.886978
5212,Erie,143045,Store,JAC   ,REID STORES INC                  ,CROSBYS 40028,771,WEHRLE DR                    ,CHEEKTOWAGA,NY,14225,1600,"771 wehrle dr cheektowaga, ny 14225 42.949599, -78.755077",42.949599,-78.755077
5217,Erie,149089,Store,A     ,CVS ALBANY LLC                   ,CVS PHARMACY 00308,432,MAIN ST                  ,BUFFALO,NY,14202,4000,"432 main st buffalo, ny 14202 42.885914, -78.8743",42.885914,-78.8743
5219,Erie,148125,Store,A     ,CVS ALBANY LLC                   ,CVS PHARMACY 00609,1625,ELMWOOD AVE SPECTRUM BLDG#,BUFFALO,NY,14207,3500,"1625 elmwood ave buffalo, ny 14207 42.941104, -78.878482",42.941104,-78.878482
5224,Erie,142154,Store,A     ,CVS ALBANY LLC                   ,CVS PHARMACY #0274,360,DINGENS ST               ,BUFFALO,NY,14206,10000,"360 dingens st buffalo, ny 14206 42.877749, -78.80243",42.877749,-78.80243
5230,Erie,142286,Store,A     ,CVS ALBANY LLC                   ,CVS PHARMACY #598,1717,SHERIDAN DR             ,TONAWANDA,NY,14223,15000,"1717 sheridan dr tonawanda, ny 14223 42.980778, -78.870197",42.980778,-78.870197
5231,Erie,713620,Store,A     ,CVS ALBANY LLC                   ,CVS PHARMACY #725,392,KENMORE AVE            ,BUFFALO,NY,14223,5500,"392 kenmore ave buffalo, ny 14223 42.958291, -78.832501",42.958291,-78.832501
5235,Erie,142725,Store,JAC   ,DASH MARKETS INC                 ,DASH MARKETS,1210,COLVIN AVE            ,TONAWANDA,NY,14223,5000,"1210 colvin ave tonawanda, ny 14223 42.974085, -78.858401",42.974085,-78.858401
5237,Erie,147379,Store,JABC  ,DASH MARKETS INC                 ,DASH MARKETS,1770,HERTEL AVE                  ,BUFFALO,NY,14216,6500,"1770 hertel ave buffalo, ny 14216 42.947569, -78.842618",42.947569,-78.842618
5242,Erie,717890,Store,JAC   ,DAVOLIO INC                      ,DAVOLIO,535,MAIN ST                      ,BUFFALO,NY,14203,2000,"535 main st buffalo, ny 14203 42.888471, -78.873474",42.888471,-78.873474
5245,Erie,703955,Store,JAC   ,DEBS DELIGHTS INC                ,DEBS DELIGHTS,999,BROADWAY ST            ,BUFFALO,NY,14212,200,"999 broadway st buffalo, ny 14212 42.893309, -78.837813",42.893309,-78.837813
5246,Erie,142645,Store,JAC   ,DELAWARE MART INC                ,DELAWARE MART,2075,DELAWARE AVE                ,BUFFALO,NY,14216,1200,"2075 delaware ave buffalo, ny 14216 42.940811, -78.867694",42.940811,-78.867694
5255,Erie,141820,Store,A     ,DICKS SPORTING GOODS INC         ,DICKS SPORTING GOODS,2,WALDEN GALLERIA DR             ,CHEEKTOWAGA,NY,14225,80000,"2 walden galleria dr cheektowaga, ny 14225 42.908182, -78.759343",42.908182,-78.759343
5258,Erie,715883,Store,JAC   ,DODGE FOOD MARKET INC            ,DODGE FOOD MARKET,529,DODGE ST                     ,BUFFALO,NY,14208,1500,"529 dodge st buffalo, ny 14208 42.90558, -78.847922",42.90558,-78.847922
5265,Erie,142827,Store,A     ,DOLGENCORP OF NEW YORK INC       ,DOLLAR GENERAL #12803,3079,BAILEY AVE                  ,BUFFALO,NY,14215,9000,"3079 bailey ave buffalo, ny 14215 42.938754, -78.813645",42.938754,-78.813645
5266,Erie,142913,Store,A     ,DOLGENCORP OF NEW YORK INC       ,DOLLAR GENERAL 12975,1055,GENESEE ST                  ,BUFFALO,NY,14211,11000,"1055 genesee st buffalo, ny 14211 42.902365, -78.839165",42.902365,-78.839165
5267,Erie,142934,Store,A     ,DOLGENCORP OF NEW YORK INC       ,DOLLAR GENERAL #13305,2750,HARLEM RD                   ,CHEEKTOWAGA,NY,14225,11500,"2750 harlem rd cheektowaga, ny 14225 42.918657, -78.784293",42.918657,-78.784293
5268,Erie,143008,Store,A     ,DOLGENCORP OF NEW YORK INC       ,DOLLAR GENERAL #13366,2137,SENECA ST                   ,BUFFALO,NY,14210,9300,"2137 seneca st buffalo, ny 14210 42.854004, -78.80816",42.854004,-78.80816
5270,Erie,709110,Store,A     ,DOLGENCORP OF NEW YORK INC       ,DOLLAR GENERAL #14652,1618,MAIN ST                     ,BUFFALO,NY,14209,0,"1618 main st buffalo, ny 14209 42.917271, -78.862453",42.917271,-78.862453
5271,Erie,707428,Store,A     ,DOLGENCORP OF NEW YORK INC       ,DOLLAR GENERAL #14742,437,TONAWANDA ST                 ,BUFFALO,NY,14207,7500,"437 tonawanda st buffalo, ny 14207 42.940881, -78.899246",42.940881,-78.899246
5273,Erie,712222,Store,A     ,DOLGENCORP OF NEW YORK INC       ,DOLLAR GENERAL #14886,663,E FERRY ST                   ,BUFFALO,NY,14211,2500,"663 e ferry st buffalo, ny 14211 42.914603, -78.836646",42.914603,-78.836646
5275,Erie,714395,Store,A     ,DOLGENCORP OF NEW YORK INC       ,DOLLAR GENERAL #15900,244,FOREST AVE                   ,BUFFALO,NY,14213,7000,"244 forest ave buffalo, ny 14213 42.927726, -78.889814",42.927726,-78.889814
5281,Erie,141491,Store,A     ,DOLGENCORP OF NEW YORK INC       ,DOLLAR GENERAL 8136,93,S ROSSLER AVE                 ,BUFFALO,NY,14206,5100,"93 s rossler ave buffalo, ny 14206 42.87551, -78.794894",42.87551,-78.794894
5282,Erie,141469,Store,A     ,DOLGENCORP OF NEW YORK INC       ,DOLLAR GENERAL 8177,942,MCKINLEY PKWY                ,BUFFALO,NY,14220,8000,"942 mckinley pkwy buffalo, ny 14220 42.857419, -78.824185",42.857419,-78.824185
5283,Erie,142489,Store,A     ,DOLGENCORP OF NEW YORK INC       ,DOLLAR GENERAL #8207,1833,ELMWOOD AVE                 ,BUFFALO,NY,14207,0,"1833 elmwood ave buffalo, ny 14207 42.947134, -78.878177",42.947134,-78.878177
5290,Erie,141306,Store,A     ,DOLGENCORP OF NEW YORK INC       ,DOLLAR GENERAL 8427,315,W FERRY ST                   ,BUFFALO,NY,14213,6000,"315 w ferry st buffalo, ny 14213 42.915289, -78.889958",42.915289,-78.889958
5292,Erie,141394,Store,A     ,DOLGENCORP OF NEW YORK INC       ,DOLLAR GENERAL 8896,1336,HERTEL AVE                  ,BUFFALO,NY,14216,5600,"1336 hertel ave buffalo, ny 14216 42.947724, -78.858584",42.947724,-78.858584
5294,Erie,141468,Store,A     ,DOLGENCORP OF NEW YORK INC       ,DOLLAR GENERAL 8960,230,HOLDEN ST                    ,BUFFALO,NY,14214,1500,"230 holden st buffalo, ny 14214 42.939479, -78.834863",42.939479,-78.834863
5295,Erie,141459,Store,A     ,DOLGENCORP OF NEW YORK INC       ,DOLLAR GENERAL 9028,338,KENMORE AVE                  ,BUFFALO,NY,14223,5600,"338 kenmore ave buffalo, ny 14223 42.95825, -78.830407",42.95825,-78.830407
5296,Erie,141460,Store,A     ,DOLGENCORP OF NEW YORK INC       ,DOLLAR GENERAL 9029,1233,ABBOTT RD                   ,LACKAWANNA,NY,14218,1000,"1233 abbott rd lackawanna, ny 14218 42.83104, -78.8053",42.83104,-78.8053
5297,Erie,142818,Store,A     ,DOLGENCORP OF NEW YORK INC       ,DOLLAR GENERAL #9052,4190,UNION RD                    ,CHEEKTOWAGA,NY,14225,10000,"4190 union rd cheektowaga, ny 14225 42.928905, -78.754136",42.928905,-78.754136
5301,Erie,142100,Store,A     ,DOLGENCORP OF NEW YORK INC       ,DOLLAR GNRL #10311,827,TONAWANDA ST                 ,BUFFALO,NY,14207,3000,"827 tonawanda st buffalo, ny 14207 42.951156, -78.904559",42.951156,-78.904559
5306,Erie,721789,Store,A     ,DOLLAR TREE STORES INC           ,DOLLAR TREE #06336,2141,FILLMORE AVENUE         ,BUFFALO,NY,14214,10000,"2141 fillmore avenue buffalo, ny 14214 42.932457, -78.839256",42.932457,-78.839256
5307,Erie,724658,Store,A     ,DOLLAR TREE STORES INC           ,DOLLAR TREE #06772,1370,BROADWAY STREET             ,BUFFALO,NY,14212,8000,"1370 broadway street buffalo, ny 14212 42.895627, -78.82401",42.895627,-78.82401
5310,Erie,140763,Store,A     ,DOLLAR TREE STORES INC           ,DOLLAR TREE 1055,2400,SENECA ST                   ,BUFFALO,NY,14210,5000,"2400 seneca st buffalo, ny 14210 42.848985, -78.802285",42.848985,-78.802285
5313,Erie,141088,Store,A     ,DOLLAR TREE STORES INC           ,DOLLAR TREE 1422,2176,DELAWARE AVE                ,BUFFALO,NY,14216,10000,"2176 delaware ave buffalo, ny 14216 42.943257, -78.867991",42.943257,-78.867991
5314,Erie,140959,Store,A     ,DOLLAR TREE STORES INC           ,DOLLAR TREE #1423,3859,UNION RD                    ,CHEEKTOWAGA,NY,14225,14000,"3859 union rd cheektowaga, ny 14225 42.919393, -78.754152",42.919393,-78.754152
5322,Erie,143005,Store,A     ,DOLLAR TREE STORES INC           ,DOLLAR TREE #4284,3842,HARLEM RD #12               ,CHEEKTOWAGA,NY,14215,8000,"3842 harlem rd cheektowaga, ny 14215 42.947871, -78.784073",42.947871,-78.784073
5324,Erie,704003,Store,A     ,DOLLAR TREE STORES INC           ,DOLLAR TREE #5063,2025,SHERIDAN DR             ,BUFFALO,NY,14223,4000,"2025 sheridan dr buffalo, ny 14223 42.980794, -78.859016",42.980794,-78.859016
5325,Erie,704004,Store,A     ,DOLLAR TREE STORES INC           ,DOLLAR TREE #789,2101,ELMWOOD AVE             ,BUFFALO,NY,14207,10000,"2101 elmwood ave buffalo, ny 14207 42.9549, -78.878251",42.9549,-78.878251
5327,Erie,141193,Store,A     ,DOLLAR TREE STORES INC           ,DOLLAR TREE #962,130,THRUWAY PLAZA                ,CHEEKTOWAGA,NY,14225,10000,"130 thruway plaza cheektowaga, ny 14225 42.903981, -78.778366",42.903981,-78.778366
5331,Erie,714496,Store,JAC   ,SHERAWALI INC                    ,DOWNTOWN FOOD MART,472,MAIN ST                      ,BUFFALO,NY,14202,1600,"472 main st buffalo, ny 14202 42.886709, -78.87404",42.886709,-78.87404
5332,Erie,140436,Store,JAC   ,BAP GROUP INC                    ,DOWNTOWN TRADING CO,51,BROADWAY                      ,BUFFALO,NY,14202,1000,"51 broadway buffalo, ny 14202 42.886093, -78.870962",42.886093,-78.870962
5333,Erie,143038,Store,JAC   ,DOYLES FOOD INC                  ,DOYLES FOOD,1981,NIAGARA ST                  ,BUFFALO,NY,14207,1500,"1981 niagara st buffalo, ny 14207 42.937902, -78.903984",42.937902,-78.903984
5334,Erie,728668,Store,JAC   ,DRINK MAPLE INC                  ,DRINKMAPLE,505,DUKE ROAD SUITE 450    ,BUFFALO,NY,14225,7000,"505 duke road buffalo, ny 14225 42.904054, -78.762161",42.904054,-78.762161
5337,Erie,141986,Store,JAC   ,ALABELI FAWAZ S                  ,EAST FERRY CLOVER FARM,436,E FERRY ST                   ,BUFFALO,NY,14208,5000,"436 e ferry st buffalo, ny 14208 42.914716, -78.848092",42.914716,-78.848092
5338,Erie,727046,Store,JAC   ,EAST FERRY FOOD & DELI INC       ,EAST FERRY FOOD & DELI,1326,E FERRY STREET              ,BUFFALO,NY,14211,1500,"1326 e ferry street buffalo, ny 14211 42.914678, -78.814866",42.914678,-78.814866
5339,Erie,727183,Store,JAC   ,ALI TOWFFEEK G                   ,EAT DELAVAN EXPRESS DEL,635,E DELAVAN AVE                ,BUFFALO,NY,14215,1100,"635 e delavan ave buffalo, ny 14215 42.921789, -78.833518",42.921789,-78.833518
5345,Erie,719688,Store,A     ,EDSON MINI MART INC              ,EDSON MINI MART,176,EDSON STREET                 ,BUFFALO,NY,14210,0,"176 edson street buffalo, ny 14210 42.852696, -78.797956",42.852696,-78.797956
5346,Erie,732185,Store,JAC   ,NAGI IZZADDIN                    ,EGGERT EXPRESS,1558,E DELAVAN AVE               ,BUFFALO,NY,14215,0,"1558 e delavan ave buffalo, ny 14215 42.922786, -78.7989",42.922786,-78.7989
5347,Erie,143636,Store,JAC   ,ELK PROVISION COMPANY INC        ,ELK PROVISION,1260,CLINTON ST                  ,BUFFALO,NY,14206,5000,"1260 clinton st buffalo, ny 14206 42.875402, -78.828712",42.875402,-78.828712
5348,Erie,142900,Store,JAC   ,BAP GROUP INC                    ,ELLICOTT SQ TRADING CO,295,MAIN ST SUITE 114        ,BUFFALO,NY,14203,2300,"295 main st buffalo, ny 14203 42.882195, -78.875506",42.882195,-78.875506
5351,Erie,142629,Store,JAC   ,ELMWOOD EXPRESS MINIMART INC     ,ELMWOOD EXPRESS MINIMRT,460,ELMWOOD AVE              ,BUFFALO,NY,14222,3200,"460 elmwood ave buffalo, ny 14222 42.909392, -78.877105",42.909392,-78.877105
5352,Erie,142427,Store,JAC   ,214 ELMWOOD AVENUE CORP          ,ELMWOOD MARKET,214,ELMWOOD AVE                  ,BUFFALO,NY,14222,3500,"214 elmwood ave buffalo, ny 14222 42.902872, -78.877136",42.902872,-78.877136
5354,Erie,142003,Store,JACD  ,EMERLING INTERNATIONAL FOODS INC ,EMERLING INTERNATIONAL,2381,FILLMORE AVE                ,BUFFALO,NY,14214,140000,"2381 fillmore ave buffalo, ny 14214 42.938213, -78.839216",42.938213,-78.839216
5356,Erie,730504,Store,JAC   ,ESSER MINI MART LLC              ,ESSER MINI MART,187,ESSER AVENUE                 ,BUFFALO,NY,14207,0,"187 esser avenue buffalo, ny 14207 42.957488, -78.904008",42.957488,-78.904008
5357,Erie,142614,Store,JAC   ,MOHAMED MOHAMED A                ,ESTATE OF AHMED MOHAMED,1069,BROADWAY ST                 ,BUFFALO,NY,14212,1500,"1069 broadway st buffalo, ny 14212 42.893868, -78.83518",42.893868,-78.83518
5358,Erie,141295,Store,JAC   ,DARMOGRAI YURI                   ,EURO DELI&GIFTS,4166,UNION RD                    ,CHEEKTOWAGA,NY,14225,1976,"4166 union rd cheektowaga, ny 14225 42.928833, -78.754138",42.928833,-78.754138
5362,Erie,720083,Store,JAC   ,THOMAS ERNEST FRANK              ,EXCLUSIVELY ALASKAN GOO,1650,HERTEL AVE                  ,BUFFALO,NY,14216,500,"1650 hertel ave buffalo, ny 14216 42.947626, -78.846496",42.947626,-78.846496
5367,Erie,142065,Store,JAC   ,PETR ALL PETROLEUM CONSULTING COR,EXPRESS MART #374,1235,COLVIN BLVD             ,TONOWANDA,NY,14223,1500,"1235 colvin blvd tonowanda, ny 14223 42.974666, -78.858415",42.974666,-78.858415
5368,Erie,142066,Store,JAC   ,PETR ALL PETROLEUM CONSULTING COR,EXPRESS MART #375,5115,GENESSEE ST             ,CHEEKTOWAGA,NY,14225,1500,"5115 genessee st cheektowaga, ny 14225 42.937854, -78.697283",42.937854,-78.697283
5373,Erie,709660,Store,JAC   ,PETR ALL PETROLEUM CONSULTING COR,EXPRESS MART #389,2633,GENESSEE ST                 ,BUFFALO,NY,14225,4500,"2633 genessee st buffalo, ny 14225 42.922097, -78.784597",42.922097,-78.784597
5375,Erie,728746,Store,JAC   ,EDRES ALI SALEH                  ,EXPRESS MINI MARKET,1201,WALDEN AVE              ,BUFFALO,NY,14211,1500,"1201 walden ave buffalo, ny 14211 42.907274, -78.791642",42.907274,-78.791642
5378,Erie,149433,Store,A     ,FAMILY DOLLAR STORES OF NY INC   ,FAMILY DOLLAR 1551,1307,JEFFERSON AVE             ,BUFFALO,NY,14208,5000,"1307 jefferson ave buffalo, ny 14208 42.91067, -78.853985",42.91067,-78.853985
5379,Erie,140240,Store,A     ,FAMILY DOLLAR STORES OF NY INC   ,FAMILY DOLLAR 2160,1459,KENSINGTON AVE            ,BUFFALO,NY,14215,12000,"1459 kensington ave buffalo, ny 14215 42.942402, -78.802725",42.942402,-78.802725
5380,Erie,706210,Store,A     ,FAMILY DOLLAR STORES OF NY INC   ,FAMILY DOLLAR #28469,3364,BAILEY AVE                  ,BUFFALO,NY,14215,8600,"3364 bailey ave buffalo, ny 14215 42.946656, -78.813682",42.946656,-78.813682
5381,Erie,141069,Store,A     ,FAMILY DOLLAR STORES OF NY INC   ,FAMILY DOLLAR 3113,492,GRANT ST                   ,BUFFALO,NY,14213,7200,"492 grant st buffalo, ny 14213 42.927428, -78.889428",42.927428,-78.889428
5382,Erie,140803,Store,A     ,FAMILY DOLLAR STORES OF NY INC   ,FAMILY DOLLAR 3125,1909,S PARK AVE                ,BUFFALO,NY,14220,5500,"1909 s park ave buffalo, ny 14220 42.846621, -78.823708",42.846621,-78.823708
5383,Erie,727730,Store,A     ,FAMILY DOLLAR STORES OF NY INC   ,FAMILY DOLLAR #31651,909,JEFFERSON AVE                ,BUFFALO,NY,14204,7899,"909 jefferson ave buffalo, ny 14204 42.899976, -78.85397",42.899976,-78.85397
5384,Erie,728910,Store,A     ,FAMILY DOLLAR STORES OF NY INC   ,FAMILY DOLLAR #31878,127,SKILLEN ST                   ,BUFFALO,NY,14207,5000,"127 skillen st buffalo, ny 14207 42.959037, -78.894749",42.959037,-78.894749
5385,Erie,140884,Store,A     ,FAMILY DOLLAR STORES OF NY INC   ,FAMILY DOLLAR 3197,1234,ABBOTT RD                 ,LACKAWANNA,NY,14218,6500,"1234 abbott rd lackawanna, ny 14218 42.830691, -78.805187",42.830691,-78.805187
5386,Erie,734180,Store,A     ,FAMILY DOLLAR STORES OF NY INC   ,FAMILY DOLLAR #32093,121,RIDGE RD                     ,BUFFALO,NY,14218,0,"121 ridge rd buffalo, ny 14218 42.827486, -78.847102",42.827486,-78.847102
5388,Erie,142262,Store,A     ,FAMILY DOLLAR STORES OF NY INC   ,FAMILY DOLLAR #3845,710,KENMORE AVE                ,BUFFALO,NY,14216,3500,"710 kenmore ave buffalo, ny 14216 42.958505, -78.844434",42.958505,-78.844434
5389,Erie,141109,Store,A     ,FAMILY DOLLAR STORES OF NY INC   ,FAMILY DOLLAR #3949,2213,NIAGARA ST                ,BUFFALO,NY,14207,10000,"2213 niagara st buffalo, ny 14207 42.944332, -78.907272",42.944332,-78.907272
5390,Erie,142263,Store,A     ,FAMILY DOLLAR STORES OF NY INC   ,FAMILY DOLLAR # 4516,1000,HERTEL AVE                ,BUFFALO,NY,14216,5000,"1000 hertel ave buffalo, ny 14216 42.947768, -78.871034",42.947768,-78.871034
5392,Erie,141340,Store,A     ,FAMILY DOLLAR STORES OF NY INC   ,FAMILY DOLLAR 4665,265,W FERRY                    ,BUFFALO,NY,14213,7400,"265 w ferry buffalo, ny 14213 42.915242, -78.89186",42.915242,-78.89186
5394,Erie,141254,Store,A     ,FAMILY DOLLAR STORES OF NY INC   ,FAMILY DOLLAR 4705,1770,BROADWAY                  ,BUFFALO,NY,14212,8000,"1770 broadway buffalo, ny 14212 42.897742, -78.808131",42.897742,-78.808131
5395,Erie,141303,Store,A     ,FAMILY DOLLAR STORES OF NY INC   ,FAMILY DOLLAR 4740,2320,GENESEE ST                ,CHEEKTOWAGA,NY,14225,1700,"2320 genesee st cheektowaga, ny 14225 42.918854, -78.797612",42.918854,-78.797612
5396,Erie,141378,Store,A     ,FAMILY DOLLAR STORES OF NY INC   ,FAMILY DOLLAR 4950,1185,GENESEE ST                ,BUFFALO,NY,14211,9000,"1185 genesee st buffalo, ny 14211 42.903766, -78.83584",42.903766,-78.83584
5398,Erie,142264,Store,A     ,FAMILY DOLLAR STORES OF NY INC   ,FAMILY DOLLAR #5040,738,E DELAVAN AVE              ,BUFFALO,NY,14215,8000,"738 e delavan ave buffalo, ny 14215 42.922099, -78.829584",42.922099,-78.829584
5399,Erie,141470,Store,A     ,FAMILY DOLLAR STORES OF NY INC   ,FAMILY DOLLAR 5132,438,SOUTH PARK AVE             ,BUFFALO,NY,14204,6000,"438 south park ave buffalo, ny 14204 42.871557, -78.863514",42.871557,-78.863514
5400,Erie,142610,Store,A     ,FAMILY DOLLAR STORES OF NY INC   ,FAMILY DOLLAR 5242,2565,BAILEY AVE                ,BUFFALO,NY,14215,9000,"2565 bailey ave buffalo, ny 14215 42.92434, -78.813678",42.92434,-78.813678
5401,Erie,142267,Store,A     ,FAMILY DOLLAR STORES OF NY INC   ,FAMILY DOLLAR #5273,670,S OGDEN ST                 ,BUFFALO,NY,14206,8000,"670 s ogden st buffalo, ny 14206 42.879769, -78.801213",42.879769,-78.801213
5407,Erie,142960,Store,A     ,FAMILY DOLLAR STORES OF NY INC   ,FAMILY DOLLAR #8302,1384,MAIN ST                   ,BUFFALO,NY,14209,15000,"1384 main st buffalo, ny 14209 42.911458, -78.865855",42.911458,-78.865855
5410,Erie,142997,Store,A     ,FAMILY DOLLAR STORE OPERATIONS   ,FAMILY DOLLAR #8785,3231,S PARK AVE                ,LACKAWANNA,NY,14218,10000,"3231 s park ave lackawanna, ny 14218 42.812026, -78.823947",42.812026,-78.823947
5411,Erie,148707,Store,A     ,FAMILY DOLLAR STORES OF NY INC   ,FAMILY DOLLAR  #895,459,WILLIAM ST                 ,BUFFALO,NY,14204,6000,"459 william st buffalo, ny 14204 42.885013, -78.855",42.885013,-78.855
5412,Erie,142247,Store,A     ,FAMILY DOLLAR STORES OF NY INC   ,FAMILY DOLLAR ST #7610,2250,SENECA ST                 ,BUFFALO,NY,14210,7033,"2250 seneca st buffalo, ny 14210 42.851904, -78.805709",42.851904,-78.805709
5413,Erie,711358,Store,A     ,FAMILY DOLLAR STORES OF NY INC   ,FAMILY DOLLAR STORE # 1,928,BROADWAY ST                ,BUFFALO,NY,14212,0,"928 broadway st buffalo, ny 14212 42.892802, -78.840181",42.892802,-78.840181
5415,Erie,711357,Store,A     ,FAMILY DOLLAR STORES OF NY INC   ,FAMILY DOLLAR STORE #90,333,AMHERST  ST                ,BUFFALO,NY,14207,3000,"333 amherst st buffalo, ny 14207 42.937677, -78.89143",42.937677,-78.89143
5416,Erie,149704,Store,JAC   ,ALKHOLAKI FADHLE&KHULAQI ALI     ,FAMILY FOOD MARKET,412,AUBURN AVE                   ,BUFFALO,NY,14213,1200,"412 auburn ave buffalo, ny 14213 42.918532, -78.88547",42.918532,-78.88547
5417,Erie,731047,Store,JAC   ,SIMKE INC                        ,FAMILY MART,660,ENGLEWOOD AVE                ,BUFFALO,NY,14223,1400,"660 englewood ave buffalo, ny 14223 42.964513, -78.843227",42.964513,-78.843227
5418,Erie,141428,Store,JABCH ,FAMOUS DOUGHNUTS INC             ,FAMOUS DOUGHNUTS,3043,MAIN ST                 ,BUFFALO,NY,14214,8000,"3043 main st buffalo, ny 14214 42.947814, -78.829581",42.947814,-78.829581
5419,Erie,149881,Store,JAC   ,SKUP ZENON                       ,FAMOUS HORSERADISH,999,BROADWAY ST                  ,BUFFALO,NY,14212,1000,"999 broadway st buffalo, ny 14212 42.893309, -78.837813",42.893309,-78.837813
5421,Erie,725214,Store,A     ,ALARQBAN AHMED S                 ,FARM FOOD MARKET,1021,E FERRY STREET              ,BUFFALO,NY,14211,2000,"1021 e ferry street buffalo, ny 14211 42.914468, -78.826226",42.914468,-78.826226
5422,Erie,725059,Store,JAC   ,2724 BAILEY AVE INC              ,FARM FRESH MARKET,2724,BAILEY AVE                  ,BUFFALO,NY,14215,3000,"2724 bailey ave buffalo, ny 14215 42.92897, -78.813666",42.92897,-78.813666
5423,Erie,734288,Store,A     ,SABTOW MADHEY U                  ,FARTUN EXPRESS STORE,860,TONAWANDA ST                 ,BUFFALO,NY,14207,1200,"860 tonawanda st buffalo, ny 14207 42.952012, -78.905001",42.952012,-78.905001
5424,Erie,723575,Store,JAC   ,FAST LINK INC                    ,FAST LINK,83,GRANT ST                      ,BUFFALO,NY,14213,1100,"83 grant st buffalo, ny 14213 42.916248, -78.890508",42.916248,-78.890508
5425,Erie,142105,Store,JAC   ,FASTRAC MARKETS LLC              ,FASTRAC MARKET 290,2751,BAILEY AVE                  ,BUFFALO,NY,14215,3000,"2751 bailey ave buffalo, ny 14215 42.929474, -78.813662",42.929474,-78.813662
5426,Erie,141438,Store,JAC   ,BJC 231 INC                      ,FAST STOP FOOD MART,326,MILITARY RD                  ,BUFFALO,NY,14207,3000,"326 military rd buffalo, ny 14207 42.945658, -78.891262",42.945658,-78.891262
5427,Erie,733566,Store,JAC   ,NAGI MUNASSR M                   ,FBN DELI,2289,FILLMORE AVE                ,BUFFALO,NY,14214,2200,"2289 fillmore ave buffalo, ny 14214 42.936272, -78.839226",42.936272,-78.839226
5430,Erie,149476,Store,JAC   ,FEDERAL MARKET CO INC            ,FEDERAL MEATS,2140,DELAWARE AVE                ,BUFFALO,NY,14216,2000,"2140 delaware ave buffalo, ny 14216 42.942506, -78.867898",42.942506,-78.867898
5440,Erie,141790,Store,JAC   ,FEEL RITE NATURAL FD SHOPPES INC ,FEEL RITE NATURAL FOOD,2141,DELAWARE AVE                ,BUFFALO,NY,14216,3000,"2141 delaware ave buffalo, ny 14216 42.94204, -78.867836",42.94204,-78.867836
5441,Erie,141011,Store,JAC   ,ABUHAMRA HANI H                  ,FERRY EXPRESS MART,966,E FERRY ST                   ,BUFFALO,NY,14211,1800,"966 e ferry st buffalo, ny 14211 42.91449, -78.828217",42.91449,-78.828217
5442,Erie,142764,Store,JAC   ,FERRY EXPRESS MART 4 INC         ,FERRY EXPRESS MART 4,2239,BAILEY AVE                  ,BUFFALO,NY,14211,2000,"2239 bailey ave buffalo, ny 14211 42.915307, -78.813704",42.915307,-78.813704
5443,Erie,141779,Store,JAC   ,ABUHAMRA HANI                    ,FERRY EXPRESS MART II,669,WALDEN AVE                   ,BUFFALO,NY,14211,2000,"669 walden ave buffalo, ny 14211 42.905188, -78.811363",42.905188,-78.811363
5444,Erie,142843,Store,JAC   ,FERRY EXPRESS V LLC              ,FERRY EXPRESS V,1507,FILLMORE AVE                ,BUFFALO,NY,14211,2500,"1507 fillmore ave buffalo, ny 14211 42.914927, -78.839136",42.914927,-78.839136
5445,Erie,141608,Store,JAC   ,ABDULLA OMAR S                   ,FILLMORE MINI MART,2189,FILLMORE AVE                ,BUFFALO,NY,14214,2500,"2189 fillmore ave buffalo, ny 14214 42.933502, -78.839247",42.933502,-78.839247
5446,Erie,140204,Store,JAC   ,MUTHANA SALEH                    ,FILLMORE UTICA FOOD MKT,1370-72,FILLMORE AVE             ,BUFFALO,NY,14211,1800,"1370 72 fillmore ave buffalo, ny 14211 42.911062, -78.839077",42.911062,-78.839077
5447,Erie,717956,Store,A     ,FIRST LADY BEAUTY SUPPLIES INC   ,FIRST LADY BEAUTY SUPPL,427,TONAWANDA ST                 ,BUFFALO,NY,14207,3000,"427 tonawanda st buffalo, ny 14207 42.940833, -78.899221",42.940833,-78.899221
5448,Erie,713290,Store,JAC   ,ALSADAM ALI                      ,FIRST LINE,1531,NIAGARA ST                  ,BUFFALO,NY,14213,850,"1531 niagara st buffalo, ny 14213 42.926483, -78.897801",42.926483,-78.897801
5450,Erie,142954,Store,A     ,SALEH TAREQ FOUAD                ,FM DELI GROCERY,407,PLYMOUTH AVE                 ,BUFFALO,NY,14213,1800,"407 plymouth ave buffalo, ny 14213 42.908249, -78.891868",42.908249,-78.891868
5451,Erie,716883,Store,JAC   ,MUNIRIA BROTHERS INC             ,FOODLAND,1105,BROADWAY SUITE 1            ,BUFFALO,NY,14212,1700,"1105 broadway buffalo, ny 14212 42.894117, -78.833962",42.894117,-78.833962
5453,Erie,140597,Store,JAC   ,MOHAMED SALEH K                  ,FOOD PLUS III MARKET,87,CLEVELAND DR                  ,CHEEKTOWAGA,NY,14215,2500,"87 cleveland dr cheektowaga, ny 14215 42.944123, -78.795828",42.944123,-78.795828
5454,Erie,710842,Store,JAC   ,FOOD PLUS MARKET LLC             ,FOOD PLUS MARKET,414,E AMHERST STREET             ,BUFFALO,NY,14215,0,"414 e amherst street buffalo, ny 14215 42.940101, -78.822135",42.940101,-78.822135
5455,Erie,725893,Store,JAC   ,FOREST BEVERAGE LLC              ,FOREST BEVERAGE,256,FOREST AVE                   ,BUFFALO,NY,14213,1200,"256 forest ave buffalo, ny 14213 42.927735, -78.889067",42.927735,-78.889067
5458,Erie,140171,Store,JAC   ,ORIGINAL FOWLERS CHOCOLATE CO INC,FOWLERS CHOCOLATE,100,RIVER ROCK DR        ,BUFFALO,NY,14207,11000,"100 river rock dr buffalo, ny 14207 42.946967, -78.898101",42.946967,-78.898101
5461,Erie,140589,Store,JAC   ,FRANKS INDEPENDENT SERVICE INC   ,FRANKS MOBIL,3198,MAIN ST                     ,BUFFALO,NY,14214,2000,"3198 main st buffalo, ny 14214 42.951125, -78.825975",42.951125,-78.825975
5462,Erie,733978,Store,JACH  ,PKB LLC                          ,FRONTIER BEVERAGE,127,GRANT STREET                 ,BUFFALO,NY,14213,1300,"127 grant street buffalo, ny 14213 42.91747, -78.890643",42.91747,-78.890643
5465,Erie,712124,Store,JAC   ,AHMED MOHAMED M                  ,GAS PLUS EXPRESS,3287,SOUTH PARK AVE              ,BUFFALO,NY,14218,800,"3287 south park ave buffalo, ny 14218 42.8104, -78.823941",42.8104,-78.823941
5466,Erie,140224,Store,A     ,GENERAL NUTRITION CORP           ,GENERAL NUTRITION,1,GALLERIA DR WALDEN GALLERIA    ,CHEEKTOWAGA,NY,14225,1800,"1 galleria dr cheektowaga, ny 14225 42.91609, -78.76343",42.91609,-78.76343
5469,Erie,140878,Store,A     ,GENERAL NUTRITION CORP           ,GENERAL NUTRITION 6259,2638,DELAWARE AVE                ,BUFFALO,NY,14216,1000,"2638 delaware ave buffalo, ny 14216 42.955501, -78.869304",42.955501,-78.869304
5472,Erie,725164,Store,JAC   ,GENESEE MINI MART EXPRESS INC    ,GENESEE MINI MART EXPRE,1522,GENESEE ST                  ,BUFFALO,NY,14211,1500,"1522 genesee st buffalo, ny 14211 42.908562, -78.823891",42.908562,-78.823891
5474,Erie,141499,Store,JAC   ,S&J&I CORP                       ,GETTY MART,1770,SENECA ST                   ,BUFFALO,NY,14210,1800,"1770 seneca st buffalo, ny 14210 42.861723, -78.818288",42.861723,-78.818288
5475,Erie,726316,Store,JAC   ,G & G MINI MART & DELI INC       ,G & G MINI MART & DELI,407,GRANT ST                     ,BUFFALO,NY,14213,900,"407 grant st buffalo, ny 14213 42.92508, -78.889733",42.92508,-78.889733
5478,Erie,730075,Store,A     ,GLORY MARKET LLC                 ,GLORY MARKET,472,ELMWOOD AVE            ,BUFFALO,NY,14222,800,"472 elmwood ave buffalo, ny 14222 42.910084, -78.877098",42.910084,-78.877098
5479,Erie,704157,Store,JAC   ,SALEH-SHAIBI SHARIF OMER         ,GO GAS STATION,930,GEORGE URBAN BLVD            ,CHEEKTOWAGA,NY,14225,1260,"930 george urban blvd cheektowaga, ny 14225 42.92125, -78.757865",42.92125,-78.757865
5480,Erie,142872,Store,JAC   ,GOLDEN BURMA ASIA FOODS INC      ,GOLDEN BURMA ASIA FOODS,92,GRANT ST                      ,BUFFALO,NY,14213,2200,"92 grant st buffalo, ny 14213 42.916331, -78.890516",42.916331,-78.890516
5481,Erie,729936,Store,JACH  ,GOLDEN CUP COFFEE COMPANY INC    ,GOLDEN CUP COFFEE COMP,1323,JEFFERSON AVENUE            ,BUFFALO,NY,14208,1500,"1323 jefferson avenue buffalo, ny 14208 42.911385, -78.853986",42.911385,-78.853986
5483,Erie,731231,Store,JAC   ,1065 TONAWANDA ST INC            ,GOLD STAR,1065,TONAWANDA ST                ,BUFFALO,NY,14207,2000,"1065 tonawanda st buffalo, ny 14207 42.957216, -78.907689",42.957216,-78.907689
5484,Erie,142012,Store,A     ,MUTHANA INC                      ,GOLD STAR GAS MART,1126,GENESEE ST                  ,BUFFALO,NY,14211,1000,"1126 genesee st buffalo, ny 14211 42.903393, -78.836728",42.903393,-78.836728
5486,Erie,147408,Store,JACH  ,GONDOLA BRAND MACARONI PRDCTS INC,GONDOLA BRAND,1985,NIAGARA ST                  ,BUFFALO,NY,14207,6000,"1985 niagara st buffalo, ny 14207 42.937988, -78.904028",42.937988,-78.904028
5487,Erie,725942,Store,JAC   ,GOOD DEALS 1 INC                 ,GOOD DEALS 1,609,RIDGE RD                 ,BUFFALO,NY,14218,900,"609 ridge rd buffalo, ny 14218 42.825789, -78.828928",42.825789,-78.828928
5489,Erie,727275,Store,JAC   ,GOOD YEAR AVE INC                ,GOOD YEAR AVE,1129,E FERRY AVE                 ,BUFFALO,NY,14211,1500,"1129 e ferry ave buffalo, ny 14211 42.914524, -78.822168",42.914524,-78.822168
5490,Erie,709375,Store,A     ,GORDON COMPANIES INC             ,GORDON COMPANIES,675,FILLMORE AVE             ,BUFFALO,NY,14212,5000,"675 fillmore ave buffalo, ny 14212 42.891786, -78.839262",42.891786,-78.839262
5491,Erie,724096,Store,JACD  ,GORDON RESTAURANT MARKET LLC     ,GORDON RESTAURANT MARKE,1959,ELMWOOD AVE                 ,BUFFALO,NY,14207,49000,"1959 elmwood ave buffalo, ny 14207 42.951307, -78.878196",42.951307,-78.878196
5492,Erie,732109,Store,JAC   ,AHMED ALI                        ,GP EXPRESS WEST INC,400,RHODE ISLAND STREET          ,BUFFALO,NY,14213,1900,"400 rhode island street buffalo, ny 14213 42.910969, -78.88684",42.910969,-78.88684
5494,Erie,142647,Store,JAC   ,FADEL NAGIB T                    ,GRANT&DELAVAN FAMILY MK,302,GRANT ST                     ,BUFFALO,NY,14213,1200,"302 grant st buffalo, ny 14213 42.922245, -78.890106",42.922245,-78.890106
5495,Erie,140540,Store,JAC   ,GG HOLDINGS INC                  ,GRANTS VARIETY SHOPPE,1055,E FERRY ST              ,BUFFALO,NY,14211,1500,"1055 e ferry st buffalo, ny 14211 42.914456, -78.824943",42.914456,-78.824943
5497,Erie,141690,Store,JAC   ,ADEN ENTERPRISES INC             ,GREEN FARM MARKET,351,POTOMAC AVE                  ,BUFFALO,NY,14213,2500,"351 potomac ave buffalo, ny 14213 42.924081, -78.886401",42.924081,-78.886401
5499,Erie,147008,Store,JACH  ,SCT&L RETAIL MERCHANTS INC       ,GUERCIO&SONS,250,GRANT ST                     ,BUFFALO,NY,14213,22200,"250 grant st buffalo, ny 14213 42.920679, -78.890309",42.920679,-78.890309
5501,Erie,712582,Store,JAC   ,TIWARE KALA K                    ,GULF FOOD MART,595,ONTARIO ST                   ,BUFFALO,NY,14207,500,"595 ontario st buffalo, ny 14207 42.958987, -78.895119",42.958987,-78.895119
5504,Erie,715047,Store,JAC   ,H&A GROCERY DELI INC             ,H&A GROCERY,2248,MAIN ST                     ,BUFFALO,NY,14214,1500,"2248 main st buffalo, ny 14214 42.930959, -78.848027",42.930959,-78.848027
5508,Erie,142560,Store,JAC   ,ABAZID OSAMAH A                  ,HAMPSHIRE EXPRESS,170,HAMPSHIRE ST                 ,BUFFALO,NY,14213,2000,"170 hampshire st buffalo, ny 14213 42.911489, -78.894947",42.911489,-78.894947
5509,Erie,731948,Store,JAC   ,HAMPSHIRE SAVE MORE MARKET INC   ,HAMPSHIRE SAVE MORE MAR,250,HAMPSHIRE ST                 ,BUFFALO,NY,14213,1400,"250 hampshire st buffalo, ny 14213 42.912805, -78.892385",42.912805,-78.892385
5511,Erie,142104,Store,JAC   ,HANZLIAN SAUSAGE INC             ,HANZLIANS HOMEMADE SAUS,2351,GENESEE ST                  ,CHEEKTOWAGA,NY,14225,7380,"2351 genesee st cheektowaga, ny 14225 42.919197, -78.796236",42.919197,-78.796236
5512,Erie,727495,Store,JAC   ,"CHMIELEWSKI SUSAN, NOE ERIN      ",HAPPY BABIES WHOLE FOOD,51,COLONIAL CIRCLE           ,BUFFALO,NY,14222,900,"51 colonial circle buffalo, ny 14222 42.920035, -78.881445",42.920035,-78.881445
5513,Erie,708748,Store,JAC   ,HAPPY HOUSE WAY INC              ,HAPPY HOUSE WAY,970,KENSINGTON AVE               ,BUFFALO,NY,14215,1000,"970 kensington ave buffalo, ny 14215 42.936082, -78.818279",42.936082,-78.818279
5515,Erie,142237,Store,JAC   ,HATIMY INC                       ,HATIMY MARKET,278,GRANT ST                     ,BUFFALO,NY,14213,1500,"278 grant st buffalo, ny 14213 42.921452, -78.890208",42.921452,-78.890208
5516,Erie,141478,Store,JAC   ,HEINTZ & WEBER CO INC            ,HEINTZ & WEBER CO,150,READING ST                   ,BUFFALO,NY,14220,12500,"150 reading st buffalo, ny 14220 42.840966, -78.830626",42.840966,-78.830626
5517,Erie,731632,Store,JAC   ,TATRO SINEAD                     ,HENDERSON MEAT MARKET,534,ABBOTT ROAD                  ,BUFFALO,NY,14220,0,"534 abbott road buffalo, ny 14220 42.848946, -78.813319",42.848946,-78.813319
5520,Erie,720315,Store,A     ,HICKORY FARMS INC                ,HICKORY FARMS #11205,1,GALLERIA DRWALDEN GALLERIA ,BUFFALO,NY,14225,0,"1 galleria buffalo, ny 14225 42.91609, -78.76343",42.91609,-78.76343
5525,Erie,140262,Store,JAC   ,KAAID LEEMAH                     ,HIGH STREET DELI,195,HIGH ST                      ,BUFFALO,NY,14204,2500,"195 high st buffalo, ny 14204 42.900293, -78.861842",42.900293,-78.861842
5530,Erie,149724,Store,JABC  ,HOLLEY FARMS INC                 ,HOLLEY FARMS,424,PEARL ST                     ,BUFFALO,NY,14202,2900,"424 pearl st buffalo, ny 14202 42.890883, -78.873898",42.890883,-78.873898
5532,Erie,141089,Store,JAC   ,NAGI AHMED NAGI NASHER           ,HOLLY FARM MARKET II,281,E DELAVAN AVE                ,BUFFALO,NY,14208,2000,"281 e delavan ave buffalo, ny 14208 42.921996, -78.846744",42.921996,-78.846744
5534,Erie,149151,Store,JAC   ,HOTHARA FOOD MARKET INC          ,HOTARA FOOD MARKET,177,FRENCH ST                    ,BUFFALO,NY,14211,1800,"177 french st buffalo, ny 14211 42.91039, -78.832183",42.91039,-78.832183
5535,Erie,702410,Store,JAC   ,MON HTARNI                       ,HTARNI SORN ASIAN MARKE,472,ONTARIO ST                   ,BUFFALO,NY,14207,3300,"472 ontario st buffalo, ny 14207 42.956434, -78.897505",42.956434,-78.897505
5536,Erie,733401,Store,A     ,SALLEH DUBAISHI M                ,HUNT MINI MART,721,TONAWANDA ST                 ,BUFFALO,NY,14207,2000,"721 tonawanda st buffalo, ny 14207 42.948442, -78.903157",42.948442,-78.903157
5537,Erie,142891,Store,JAC   ,I&A FOOD MARKET LLC              ,I&A FOOD MARKET,1445,E DELAVAN AVE               ,BUFFALO,NY,14215,1500,"1445 e delavan ave buffalo, ny 14215 42.922756, -78.803196",42.922756,-78.803196
5538,Erie,140859,Store,JABC  ,HAMYAR FOOD CORP                 ,IGA TOWNE GARDENS,449,WILLIAM ST                   ,BUFFALO,NY,14204,11000,"449 william st buffalo, ny 14204 42.885012, -78.855079",42.885012,-78.855079
5539,Erie,734193,Store,JAC   ,3039 BAILEY AVENUE IMPERIAL INC  ,IMPERIAL FOOD MARKET,3045,BAILEY AVE                  ,BUFFALO,NY,14215,8000,"3045 bailey ave buffalo, ny 14215 42.93755, -78.813652",42.93755,-78.813652
5540,Erie,718962,Store,JAC   ,DOAT STOP CORPORATION            ,INDOPAK BANGLA BAZAR,525,DOAT ST                      ,BUFFALO,NY,14211,10001,"525 doat st buffalo, ny 14211 42.909786, -78.801275",42.909786,-78.801275
5541,Erie,718965,Store,JAC   ,AJAY SONNY INC                   ,IN & OUT MART,1981,FILLMORE AVE                ,BUFFALO,NY,14214,2200,"1981 fillmore ave buffalo, ny 14214 42.927987, -78.839299",42.927987,-78.839299
5543,Erie,732206,Store,JAC   ,IRISH COMPANIES INC              ,IRISH COMPANIES,1206,CLINTON STREET        ,BUFFALO,NY,14206,0,"1206 clinton street buffalo, ny 14206 42.876149, -78.830665",42.876149,-78.830665
5546,Erie,142130,Store,A     ,HASSAN MOTAHAR                   ,ISLAND MINI MART,232,W FERRY ST                   ,BUFFALO,NY,14213,1000,"232 w ferry st buffalo, ny 14213 42.91521, -78.893006",42.91521,-78.893006
5547,Erie,142765,Store,A     ,AYASH AHMED M                    ,ISLAND THE,1635,GENESEE ST                  ,BUFFALO,NY,14211,1000,"1635 genesee st buffalo, ny 14211 42.910004, -78.820279",42.910004,-78.820279
5548,Erie,734051,Store,JAC   ,NAGI IZZADDIN A                  ,IZZYS FOOD MARKET,1174,WALDEN AVE                  ,BUFFALO,NY,14211,1500,"1174 walden ave buffalo, ny 14211 42.907219, -78.792627",42.907219,-78.792627
5549,Erie,733128,Store,JAC   ,KRAJEWSKI JACLYN                 ,JACLYN A ARTISAN CHOCOL,41,WEST TUPPER                   ,BUFFALO,NY,14202,1000,"41 west tupper buffalo, ny 14202 42.893615, -78.873566",42.893615,-78.873566
5551,Erie,716041,Store,JAC   ,PORCHER JAMES ALAN               ,JAMES CENTER,65,NIAGARA SQUARE                ,BUFFALO,NY,14202,800,"65 niagara square buffalo, ny 14202 42.886531, -78.878773",42.886531,-78.878773
5552,Erie,149669,Store,JAD   ,JAMES DESIDERIO INC              ,JAMES DESIDERIO,550,BAILEY AVE                   ,BUFFALO,NY,14206,100000,"550 bailey ave buffalo, ny 14206 42.870527, -78.821076",42.870527,-78.821076
5553,Erie,142834,Store,A     ,NOMAN JAMIL                      ,JAMILS DELI MART,39,HOLLAND AVE                   ,LACKAWANNA,NY,14218,500,"39 holland ave lackawanna, ny 14218 42.825769, -78.842358",42.825769,-78.842358
5555,Erie,142597,Store,JAC   ,JAWANI INC                       ,JAWANI MARKET,1426,FILLMORE AVE                ,BUFFALO,NY,14211,3500,"1426 fillmore ave buffalo, ny 14211 42.912508, -78.839077",42.912508,-78.839077
5556,Erie,720783,Store,JAC   ,DOLNICK REE Y                    ,JECA ENERGY BAR CO,956,ABBOTT RD              ,BUFFALO,NY,14220,0,"956 abbott rd buffalo, ny 14220 42.838256, -78.80757",42.838256,-78.80757
5557,Erie,142749,Store,JAC   ,AHMED MOHSEN A                   ,JEFFERSON EXPRESS MART,749,JEFFERSON AVE                ,BUFFALO,NY,14204,1628,"749 jefferson ave buffalo, ny 14204 42.895515, -78.853965",42.895515,-78.853965
5558,Erie,149555,Store,JAC   ,ALMANSOB MUSLEH ALI              ,JEFFERSON FOOD MARKET,1614-1616,JEFFERSON AVE          ,BUFFALO,NY,14208,1500,"1614 1616 jefferson ave buffalo, ny 14208 42.919231, -78.853984",42.919231,-78.853984
5559,Erie,709914,Store,JAC   ,AMIN YASMIN                      ,JERUSALEM HALAL MARKET,1146,HERTEL AVE                  ,BUFFALO,NY,14216,3000,"1146 hertel ave buffalo, ny 14216 42.947761, -78.865634",42.947761,-78.865634
5561,Erie,140347,Store,JAC   ,WHITE ARROW SERVICE STATIONS INC ,JIMS TRUCK PLAZA,2125,WALDEN AVE                  ,CHEEKTOWAGA,NY,14225,5000,"2125 walden ave cheektowaga, ny 14225 42.907361, -78.757368",42.907361,-78.757368
5562,Erie,141600,Store,JAC   ,SHADY MICHAEL                    ,J&M CONVENIENT FD SHOP,2365,WILLIAM ST                  ,CHEEKTOWAGA,NY,14206,3000,"2365 william st cheektowaga, ny 14206 42.884324, -78.783001",42.884324,-78.783001
5564,Erie,141633,Store,JAC   ,JOHNNYS MOHAWK MEATS INC         ,JOHNNYS MEATS,1191,HERTEL AVE                  ,BUFFALO,NY,14216,5000,"1191 hertel ave buffalo, ny 14216 42.94775, -78.864084",42.94775,-78.864084
5566,Erie,717073,Store,JAC   ,JOMOW INTERNATIONAL MARKET INC   ,JOMOW INTERNATIONAL MAR,188,GRANT ST                     ,BUFFALO,NY,14213,0,"188 grant st buffalo, ny 14213 42.919092, -78.890518",42.919092,-78.890518
5567,Erie,142848,Store,JAC   ,KADI MUSID                       ,KADI MINI MART,2534,BAILEY AVE                  ,BUFFALO,NY,14215,1500,"2534 bailey ave buffalo, ny 14215 42.92376, -78.813677",42.92376,-78.813677
5568,Erie,733192,Store,JAC   ,BLACHOWICZ KAREN A               ,KAREN'S EXPRESS SHOP,92,FRANKLIN ST                   ,BUFFALO,NY,14202,400,"92 franklin st buffalo, ny 14202 42.883268, -78.877509",42.883268,-78.877509
5572,Erie,713025,Store,JAC   ,DAVID ATIM KAT                   ,KAT FOOD MARKET,287,GRANT ST                     ,BUFFALO,NY,14213,2000,"287 grant st buffalo, ny 14213 42.921813, -78.890161",42.921813,-78.890161
5573,Erie,707242,Store,JAD   ,KB RENTAL & HOLDINGS INC         ,KB HOLDINGS,1650,WILLIAM ST                  ,BUFFALO,NY,14206,8000,"1650 william st buffalo, ny 14206 42.884743, -78.809938",42.884743,-78.809938
5574,Erie,731946,Store,JAC   ,HASHO KIBREAB TEWOLOE            ,KB USA MARKET,163,W FERRY ST                   ,BUFFALO,NY,14213,1600,"163 w ferry st buffalo, ny 14213 42.91514, -78.89559",42.91514,-78.89559
5577,Erie,711508,Store,JAC   ,KELLYS COUNTRY STORE INC         ,KELLYS COUNTRY STORE,999,BROADWAY ST STAND #61    ,BUFFALO,NY,14212,400,"999 broadway st buffalo, ny 14212 42.893309, -78.837813",42.893309,-78.837813
5579,Erie,141706,Store,JAC   ,KELLYS COUNTRY STORE INC         ,KELLYS COUNTRY STORE,999,BROADWAY STAND 80      ,BUFFALO,NY,14212,400,"999 broadway buffalo, ny 14212 42.893309, -78.837813",42.893309,-78.837813
5582,Erie,142842,Store,JAC   ,WNY BROTHERS ENTERPRISES INC     ,KENSINGTON&POULTNEY,900,KENSINGTON AVE               ,BUFFALO,NY,14215,1500,"900 kensington ave buffalo, ny 14215 42.935201, -78.820464",42.935201,-78.820464
5589,Erie,149236,Store,JAC   ,DELTA SONIC CAR WASH SYSTEMS INC ,KISS MART,2590,DELAWARE AVE        ,BUFFALO,NY,14216,1800,"2590 delaware ave buffalo, ny 14216 42.954895, -78.869242",42.954895,-78.869242
5590,Erie,148197,Store,A     ,DELTA SONIC CAR WASH SYSTEMS INC ,KISS MART,1006,MCKINLEY PKWY         ,BUFFALO,NY,14220,300,"1006 mckinley pkwy buffalo, ny 14220 42.85893, -78.82502",42.85893,-78.82502
5592,Erie,149235,Store,JAC   ,DELTA SONIC CAR WASH SYSTEMS INC ,KISS MART 805,2285,WALDEN AVE          ,CHEEKTOWAGA,NY,14225,2500,"2285 walden ave cheektowaga, ny 14225 42.907183, -78.752546",42.907183,-78.752546
5593,Erie,149013,Store,JABC  ,DELTA SONIC CAR WASH SYSTEMS INC ,KISS MART 807,1264,MAIN ST             ,BUFFALO,NY,14209,6480,"1264 main st buffalo, ny 14209 42.907929, -78.867071",42.907929,-78.867071
5598,Erie,140731,Store,A     ,K MART CORP                      ,K MART 3415,1001,HERTEL AVE              ,BUFFALO,NY,14216,78000,"1001 hertel ave buffalo, ny 14216 42.947769, -78.870608",42.947769,-78.870608
5600,Erie,713837,Store,JAC   ,ROGER L URBAN INC                ,KO-ED CANDIES,285,ABBOTT RD                ,BUFFALO,NY,14220,2000,"285 abbott rd buffalo, ny 14220 42.853734, -78.819773",42.853734,-78.819773
5604,Erie,142563,Store,JAC   ,MANSOUR LAURA                    ,KRK FOOD MART,523,STARIN AVE                   ,BUFFALO,NY,14216,2200,"523 starin ave buffalo, ny 14216 42.954678, -78.84385",42.954678,-78.84385
5605,Erie,142150,Store,JAC   ,2116 CLINTON STREET INC          ,K SISTERS PIEROGI,2116,CLINTON ST                  ,BUFFALO,NY,14206,1000,"2116 clinton st buffalo, ny 14206 42.871696, -78.798043",42.871696,-78.798043
5608,Erie,149964,Store,JAC   ,UNITED REFINING CO OF PA INC     ,KWIK FILL A0018,2270,WALDEN AVE                  ,CHEEKTOWAGA,NY,14225,1500,"2270 walden ave cheektowaga, ny 14225 42.907286, -78.752039",42.907286,-78.752039
5620,Erie,141755,Store,A     ,UNITED REFINING CO OF PA INC     ,KWIK FILL A14-98,2543,DELAWARE AVE                ,BUFFALO,NY,14216,1200,"2543 delaware ave buffalo, ny 14216 42.953408, -78.869018",42.953408,-78.869018
5623,Erie,143056,Store,A     ,MOHAMED ZACARIYA A               ,KWIK STOP MART,67,HERTEL                        ,BUFFALO,NY,14207,0,"67 hertel buffalo, ny 14207 42.941467, -78.90393",42.941467,-78.90393
5624,Erie,712498,Store,JAC   ,NAGI MAAD SALEH                  ,LACKAWANNA EXPRESS MARK,161,STEELAWANNA AVE              ,BUFFALO,NY,14218,700,"161 steelawanna ave buffalo, ny 14218 42.822992, -78.846725",42.822992,-78.846725
5625,Erie,141851,Store,JAC   ,KDJB FOODS INC                   ,LACKAWANNA SAVE A LOT,1234,ABBOTT RD                   ,LACKAWANNA,NY,14218,21700,"1234 abbott rd lackawanna, ny 14218 42.830691, -78.805187",42.830691,-78.805187
5626,Erie,735004,Store,JAC   ,LACKAWANNA TRADE MARKET INC      ,LACKAWANNA TRADE MARKET,169,WILKESBARRE ST               ,BUFFALO,NY,14218,0,"169 wilkesbarre st buffalo, ny 14218 42.822331, -78.84334",42.822331,-78.84334
5632,Erie,723968,Store,JAC   ,MAINSPRING LLC                   ,LAKEWARD SPIRITS,65,VANDALIA ST SUITE 1           ,BUFFALO,NY,14204,12000,"65 vandalia st buffalo, ny 14204 42.866419, -78.861162",42.866419,-78.861162
5634,Erie,140128,Store,JACDK ,LANDIES CANDIES CO INC           ,LANDIES CANDIES,2495,MAIN ST SUITE 350           ,BUFFALO,NY,14214,23000,"2495 main st buffalo, ny 14214 42.935805, -78.842819",42.935805,-78.842819
5635,Erie,141512,Store,JAC   ,MOHAMED AMAR SALEH               ,LANGFIELD FOOD&MEAT MKT,313,WESTON AVE                   ,BUFFALO,NY,14215,2500,"313 weston ave buffalo, ny 14215 42.92835, -78.802322",42.92835,-78.802322
5638,Erie,142202,Store,A     ,LEROY SAVE MORE INC              ,LEROY SAVE MORE,431,LEROY AVE                    ,BUFFALO,NY,14215,1500,"431 leroy ave buffalo, ny 14215 42.932742, -78.829471",42.932742,-78.829471
5639,Erie,708076,Store,JAC   ,PARKER DARIA M                   ,LEWANDOWSKI PRODUCE,999,BROADWAY                     ,BUFFALO,NY,14212,500,"999 broadway buffalo, ny 14212 42.893309, -78.837813",42.893309,-78.837813
5640,Erie,705712,Store,JAC   ,LEWISTON JELLIES LLC             ,LEWISTON JELLIES,999,BROADWAY STREET          ,BUFFALO,NY,14212,500,"999 broadway street buffalo, ny 14212 42.893309, -78.837813",42.893309,-78.837813
5641,Erie,728038,Store,JABC  ,LEXINGTON REAL FOODS COMMUNITY CO,LEXINGTON COOPERATIVE M,1678,HERTEL AVENUE           ,BUFFALO,NY,14216,14500,"1678 hertel avenue buffalo, ny 14216 42.947612, -78.845626",42.947612,-78.845626
5642,Erie,141971,Store,JAC   ,LEXINGTON RL FDS CMMNTY CO-OP INC,LEXINGTON CO-OP MARKET,807,ELMWOOD AVE                  ,BUFFALO,NY,14222,8400,"807 elmwood ave buffalo, ny 14222 42.919109, -78.877021",42.919109,-78.877021
5643,Erie,142598,Store,A     ,LIMIT SPOT INC THE               ,LIMIT SPOT,2050,NIAGARA ST                  ,BUFFALO,NY,14207,1000,"2050 niagara st buffalo, ny 14207 42.939938, -78.905023",42.939938,-78.905023
5644,Erie,714510,Store,JAC   ,LIN FOOD CO INC                  ,LIN ASIAN MARKET,927,TONAWANDA ST                 ,BUFFALO,NY,14207,2750,"927 tonawanda st buffalo, ny 14207 42.953778, -78.905917",42.953778,-78.905917
5645,Erie,710770,Store,JAC   ,NIAGARA FALLS DAILY GROCERS INC  ,LINCOLN PARK MARKET,540,NIAGARA FALLS BLVD           ,BUFFALO,NY,14223,4000,"540 niagara falls blvd buffalo, ny 14223 42.968688, -78.823461",42.968688,-78.823461
5646,Erie,715663,Store,JAC   ,LIQUOR AND CONVENIENT EXPRESS INC,LIQUOR AND CONVENIENT E,1624,WILLIAM ST UNIT 1           ,BUFFALO,NY,14206,2500,"1624 william st buffalo, ny 14206 42.884746, -78.810434",42.884746,-78.810434
5648,Erie,141208,Store,JACD  ,LORIGOS MEATING PLACE INC        ,LORIGOS MEATING PLACE,185,GRANT ST                     ,BUFFALO,NY,14213,24000,"185 grant st buffalo, ny 14213 42.919012, -78.890528",42.919012,-78.890528
5649,Erie,141856,Store,A     ,SOURCE INTERNATIONAL INC         ,LOTTO AND MORE,,GALLERIA MALL L-201              ,CHEEKTOWAGA,NY,14225,500,,,
5651,Erie,722529,Store,JAC   ,CHEUPWINT AUNG                   ,LUCKY 7 ASIAN MARKET,931,NIAGARA ST                   ,BUFFALO,NY,14213,1500,"931 niagara st buffalo, ny 14213 42.908466, -78.89893",42.908466,-78.89893
5652,Erie,732431,Store,A     ,CHUEPWINT AUNG                   ,LUCKY 7 ASIAN MARKET,150,MILITARY RD                  ,BUFFALO,NY,14207,1500,"150 military rd buffalo, ny 14207 42.940766, -78.892066",42.940766,-78.892066
5653,Erie,729015,Store,JAC   ,LUCKY AMANI LTD                  ,LUCKY AMANI,19,WASSON AVE                    ,BUFFALO,NY,14218,1000,"19 wasson ave buffalo, ny 14218 42.826781, -78.846559",42.826781,-78.846559
5655,Erie,731223,Store,A     ,LUCKY MART INC                   ,LUCKY MART,405,HAMPSHIRE ST                 ,BUFFALO,NY,14213,800,"405 hampshire st buffalo, ny 14213 42.915245, -78.88768",42.915245,-78.88768
5656,Erie,719629,Store,JAC   ,LUCKYS FOOD MARKET INC           ,LUCKYS FOOD MARKET,729,SYCAMORE ST                  ,BUFFALO,NY,14212,2500,"729 sycamore st buffalo, ny 14212 42.895997, -78.844493",42.895997,-78.844493
5657,Erie,733218,Store,JAC   ,ABADIDU IBRAHIM A                ,LUCY INTERNATIONAL MARK,916,TONAWANDA ST                 ,BUFFALO,NY,14207,800,"916 tonawanda st buffalo, ny 14207 42.953471, -78.905758",42.953471,-78.905758
5658,Erie,140130,Store,JABH  ,LUIGIS FAMILY BAKERY INC         ,LUIGIS FAMILY BAKERY,83,FOREST AVE                    ,BUFFALO,NY,14213,17500,"83 forest ave buffalo, ny 14213 42.92779, -78.895989",42.92779,-78.895989
5659,Erie,146500,Store,JAC   ,LUPAS PETRU                      ,LUPAS MEATS,999,BROADWAY STAND 34            ,BUFFALO,NY,14212,1200,"999 broadway buffalo, ny 14212 42.893309, -78.837813",42.893309,-78.837813
5663,Erie,722990,Store,A     ,GENERAL WELDING & FABRICATING INC,MADE IN AMERICA STORE,1,WALDEN GALLERIA MALL       ,BUFFALO,NY,14225,0,"1 walden galleria mall buffalo, ny 14225 42.908182, -78.759343",42.908182,-78.759343
5664,Erie,718248,Store,JAC   ,MADINA FOOD MARKET INC           ,MADINA FOOD MARKET,119,WILKESBARRE ST               ,BUFFALO,NY,14218,0,"119 wilkesbarre st buffalo, ny 14218 42.823715, -78.843324",42.823715,-78.843324
5665,Erie,721503,Store,A     ,MADINA PHARMACY INC              ,MADINA PHARMACY,1105,BROADWAY SUITE 8            ,BUFFALO,NY,14212,2950,"1105 broadway buffalo, ny 14212 42.894117, -78.833962",42.894117,-78.833962
5666,Erie,148078,Store,JAC   ,SAEED MEHDI N                    ,MAIN FOOD MART,1130,MAIN ST                     ,BUFFALO,NY,14209,1600,"1130 main st buffalo, ny 14209 42.904517, -78.868203",42.904517,-78.868203
5667,Erie,142434,Store,A     ,ABDULLAH MOHAMED M               ,MAIN MINI MARKET,2608,MAIN ST                     ,BUFFALO,NY,14214,2000,"2608 main st buffalo, ny 14214 42.938711, -78.839668",42.938711,-78.839668
5668,Erie,729879,Store,A     ,MAIN ST NEWS STAND LLC           ,MAIN ST NEWS STAND,438,MAIN ST                      ,BUFFALO,NY,14202,200,"438 main st buffalo, ny 14202 42.88594, -78.874292",42.88594,-78.874292
5670,Erie,142416,Store,JACD  ,CHOCOLATE DELIVERY SYSTEMS INC   ,MAKE N MOLD,1800,ELMWOOD AVE         ,BUFFALO,NY,14207,50000,"1800 elmwood ave buffalo, ny 14207 42.945949, -78.878347",42.945949,-78.878347
5671,Erie,721925,Store,JAC   ,CAMELLIA GENERAL PROVISION CO INC,MALCZEWSKI'S,999,"BROADWAY STREET, STAND 127   ",BUFFALO,NY,14212,1,"999 broadway street buffalo, ny 14212 42.893309, -78.837813",42.893309,-78.837813
5672,Erie,725070,Store,JAC   ,INDRA KARKI                      ,MANAKAMANA GROCERY STOR,472,NORMAL AVE                   ,BUFFALO,NY,14213,0,"472 normal ave buffalo, ny 14213 42.911987, -78.893977",42.911987,-78.893977
5673,Erie,142354,Store,JAC   ,ZULA CORP                        ,MANDELA MARKET,272,E FERRY ST                   ,BUFFALO,NY,14208,1400,"272 e ferry st buffalo, ny 14208 42.915046, -78.854291",42.915046,-78.854291
5675,Erie,142530,Store,JAC   ,BUFFALO BASIC INGREDIENTS INC    ,MAPLE LEAF FOODS,1400,WILLIAM ST              ,BUFFALO,NY,14206,2000,"1400 william st buffalo, ny 14206 42.884822, -78.819119",42.884822,-78.819119
5677,Erie,142404,Store,JAC   ,BRAND-ON SERVICES MARINA MKT INC ,MARINA MARKET THE,31,MARINE DR                     ,BUFFALO,NY,14202,3000,"31 marine dr buffalo, ny 14202 42.879583, -78.881619",42.879583,-78.881619
5680,Erie,728184,Store,JAC   ,NEGASH YONAS H                   ,MARRY GRILL & GROCERY 0,139,GRANT STREET                 ,BUFFALO,NY,14213,900,"139 grant street buffalo, ny 14213 42.917864, -78.890666",42.917864,-78.890666
5682,Erie,140820,Store,JAC   ,ALJAMALI HIZAM A                 ,MASTER FOOD MART,129,LOUISANA ST                  ,BUFFALO,NY,14204,2400,"129 louisana st buffalo, ny 14204 42.865361, -78.866606",42.865361,-78.866606
5683,Erie,142443,Store,JAC   ,ALYAZEEDI ANGELA R               ,MASTRIANNIS,1892,SENECA ST                   ,BUFFALO,NY,14210,700,"1892 seneca st buffalo, ny 14210 42.859327, -78.814616",42.859327,-78.814616
5685,Erie,734542,Store,JAC   ,AMERI YAHYA S AL                 ,MAY CORNER STORE,1733,GENESEE ST                  ,BUFFALO,NY,14211,2000,"1733 genesee st buffalo, ny 14211 42.911274, -78.817108",42.911274,-78.817108
5690,Erie,140417,Store,JAC   ,ABDULLA MOHAMED                  ,MEDITERRANEAN IMPORTS,162,WILKESBARRE AVE          ,LACKAWANNA,NY,14218,1200,"162 wilkesbarre ave lackawanna, ny 14218 42.822532, -78.843337",42.822532,-78.843337
5691,Erie,142744,Store,A     ,MEGA MARKET INC                  ,MEGA MARKET,778,TONAWANDA ST                 ,BUFFALO,NY,14207,1200,"778 tonawanda st buffalo, ny 14207 42.949886, -78.903906",42.949886,-78.903906
5693,Erie,141686,Store,JAC   ,MID CITY MARKET LLC              ,MID CITY MARKET,45,KENSINGTON AVE                ,BUFFALO,NY,14214,1500,"45 kensington ave buffalo, ny 14214 42.927639, -78.849606",42.927639,-78.849606
5695,Erie,149007,Store,JAC   ,MELITHONIOTES ANASTASIS&SUSAN    ,MIKES HOMEMADE CANDIES,2110,CLINTON ST                  ,BUFFALO,NY,14206,2500,"2110 clinton st buffalo, ny 14206 42.871702, -78.798292",42.871702,-78.798292
5696,Erie,141301,Store,JAC   ,JJ WAGS INC                      ,MIKES TROPICAL MARKET,475,FARGO AVE                    ,BUFFALO,NY,14213,1000,"475 fargo ave buffalo, ny 14213 42.908893, -78.895785",42.908893,-78.895785
5698,Erie,142569,Store,JACH  ,MINEO&SAPIO INC                  ,MINEO&SAPIO ITLN SAUSG,410,CONNECTICUT ST               ,BUFFALO,NY,14213,1000,"410 connecticut st buffalo, ny 14213 42.906723, -78.885952",42.906723,-78.885952
5699,Erie,710256,Store,JAC   ,MINI MAX MARKET INC              ,MINI MAX MARKET,319,MASSACHUSETTS AVE            ,BUFFALO,NY,14213,2500,"319 massachusetts ave buffalo, ny 14213 42.911782, -78.889809",42.911782,-78.889809
5700,Erie,734541,Store,JAC   ,M&M MINI MART & DELI INC         ,M&M MINI MART & DELI,465,BEST ST                      ,BUFFALO,NY,14208,0,"465 best st buffalo, ny 14208 42.903808, -78.850901",42.903808,-78.850901
5701,Erie,141081,Store,JAC   ,NASSER MUSIN A                   ,M&N MINI MART,2360,BAILEY AVE                  ,BUFFALO,NY,14211,1300,"2360 bailey ave buffalo, ny 14211 42.918743, -78.813698",42.918743,-78.813698
5704,Erie,711767,Store,JAC   ,NOCO EXPRESS LLC                 ,MOBIL MART #205,1137,ELMWOOD AVE             ,BUFFALO,NY,14222,1500,"1137 elmwood ave buffalo, ny 14222 42.928196, -78.877011",42.928196,-78.877011
5705,Erie,714499,Store,JAC   ,NOCO EXPRESS LLC                 ,MOBIL MART #206,577,ELMWOOD AVE                  ,BUFFALO,NY,14222,2000,"577 elmwood ave buffalo, ny 14222 42.912932, -78.877068",42.912932,-78.877068
5708,Erie,140172,Store,JAC   ,PERSAUDS HIMANSU MOBIL INC       ,MOBIL MART PERSAUDS,2050,SHERIDAN DR                 ,TONAWANDA,NY,14223,1000,"2050 sheridan dr tonawanda, ny 14223 42.980969, -78.85796",42.980969,-78.85796
5709,Erie,709616,Store,JAC   ,CORCORAN SEAN K                  ,MOJO MART,95,FRANKLIN ST               ,BUFFALO,NY,14202,600,"95 franklin st buffalo, ny 14202 42.884115, -78.877233",42.884115,-78.877233
5710,Erie,735228,Store,JAC   ,MO MINI MART INC                 ,MO MINI MART,2360,BAILEY AVE                  ,BUFFALO,NY,14211,0,"2360 bailey ave buffalo, ny 14211 42.918743, -78.813698",42.918743,-78.813698
5711,Erie,710604,Store,A     ,MOHAMMED AL SADAM                ,MONAS MARKET,1291,BROADWAY ST                 ,BUFFALO,NY,14212,1000,"1291 broadway st buffalo, ny 14212 42.895183, -78.827045",42.895183,-78.827045
5712,Erie,141561,Store,JAC   ,MONTES GROCERY & DELI LLC        ,MONTES GROCERY&DELI,413,SWAN ST                      ,BUFFALO,NY,14204,1200,"413 swan st buffalo, ny 14204 42.879197, -78.860371",42.879197,-78.860371
5713,Erie,703531,Store,JAC   ,MOON LITE MARKET INC             ,MOON LITE MARKET,983,TONAWANDA ST                 ,BUFFALO,NY,14207,2000,"983 tonawanda st buffalo, ny 14207 42.95511, -78.906603",42.95511,-78.906603
5714,Erie,731818,Store,JAC   ,MORIARTY MEATS LLC               ,MORIARTY MEATS,23,GRANT STREET            ,BUFFALO,NY,14213,900,"23 grant street buffalo, ny 14213 42.914608, -78.89033",42.914608,-78.89033
5715,Erie,734463,Store,JAC   ,GOOD LIFE TEA INC                ,MOSTLY TEA,1,WALDEN GALLERIA SPACE A201     ,BUFFALO,NY,14225,1400,"1 walden buffalo, ny 14225",,
5718,Erie,718549,Store,JAC   ,MR VARIETY STORE INC             ,MR VARIETY STORE,2290,FILLMORE AVE                ,BUFFALO,NY,14214,0,"2290 fillmore ave buffalo, ny 14214 42.936263, -78.839226",42.936263,-78.839226
5720,Erie,721738,Store,JAC   ,NAGI SHARA FADDIN A              ,NAGI SHARA FADDIN A,243,WALDEN AVE                   ,BUFFALO,NY,14211,1500,"243 walden ave buffalo, ny 14211 42.90351, -78.827175",42.90351,-78.827175
5721,Erie,730177,Store,JACH  ,NAJAH CORPORATION                ,NAJAH,999,BROADWAY STREET        ,BUFFALO,NY,14212,400,"999 broadway street buffalo, ny 14212 42.893309, -78.837813",42.893309,-78.837813
5724,Erie,713279,Store,A     ,BARMAN HAIL MOHAMED AH           ,NEW CITY MARKET,1069,E FERRY ST                  ,BUFFALO,NY,14211,1000,"1069 e ferry st buffalo, ny 14211 42.914451, -78.824465",42.914451,-78.824465
5725,Erie,142284,Store,A     ,HASSAIN ABDULSHAFIQ A            ,NEW ENGLEWOOD GROCERIES,115,ENGLEWOOD AVE                ,BUFFALO,NY,14214,1500,"115 englewood ave buffalo, ny 14214 42.954768, -78.827561",42.954768,-78.827561
5726,Erie,730780,Store,JAC   ,DALIL KOVAN A                    ,NEWROZ MARKET,1175,HERTEL AVE                  ,BUFFALO,NY,14216,3000,"1175 hertel ave buffalo, ny 14216 42.94775, -78.864554",42.94775,-78.864554
5727,Erie,711428,Store,JAC   ,ALHADIS SALAH M                  ,NEW SPICY TOWN & DELI,1096,KENSINGTON AVE        ,BUFFALO,NY,14215,1200,"1096 kensington ave buffalo, ny 14215 42.937765, -78.814126",42.937765,-78.814126
5728,Erie,713145,Store,JAC   ,SWEETWORKS CONFECTIONS LLC       ,NIAGARA CHOCOLATES,3500,GENESEE ST                  ,BUFFALO,NY,14225,110000,"3500 genesee st buffalo, ny 14225 42.926784, -78.755631",42.926784,-78.755631
5730,Erie,724388,Store,JAC   ,NIAGARA DELI & PIZZERIA INC      ,NIAGARA DELI & PIZZERIA,2043,NIAGARA STREET              ,BUFFALO,NY,14207,2400,"2043 niagara street buffalo, ny 14207 42.939756, -78.90493",42.939756,-78.90493
5739,Erie,142294,Store,JAC   ,NOCO EXPRESS LLC                 ,NOCO EXPRESS #05,535,KENMORE AVE          ,TONAWANDA,NY,14223,2000,"535 kenmore ave tonawanda, ny 14223 42.958397, -78.837757",42.958397,-78.837757
5742,Erie,726058,Store,A     ,NOCO EXPRESS LLC                 ,NOCO EXPRESS  #207,2058,DELAWARE AVE                ,BUFFALO,NY,14216,2400,"2058 delaware ave buffalo, ny 14216 42.940264, -78.867631",42.940264,-78.867631
5744,Erie,142703,Store,JAC   ,NOCO EXPRESS LLC                 ,NOCO EXPRESS SHOP 102,2530,HAMBURG TPKE        ,LACKAWANNA,NY,14218,2500,"2530 hamburg tpke lackawanna, ny 14218 42.815808, -78.846006",42.815808,-78.846006
5755,Erie,149734,Store,JAC   ,NOCO EXPRESS LLC                 ,NOCO EXPRESS SHOP 39,155,BAILEY AVE           ,BUFFALO,NY,14220,2800,"155 bailey ave buffalo, ny 14220 42.859973, -78.825428",42.859973,-78.825428
5756,Erie,149855,Store,JAC   ,NOCO EXPRESS LLC                 ,NOCO EXPRESS SHOP 42,2133,S PARK AVE          ,BUFFALO,NY,14220,2000,"2133 s park ave buffalo, ny 14220 42.840633, -78.82377",42.840633,-78.82377
5759,Erie,149904,Store,JAC   ,NOCO EXPRESS LLC                 ,NOCO EXPRESS SHOP 54,642,CLEVELAND DR         ,CHEEKTOWAGA,NY,14225,3000,"642 cleveland dr cheektowaga, ny 14225 42.94496, -78.775936",42.94496,-78.775936
5762,Erie,140025,Store,JAC   ,NOCO EXPRESS LLC                 ,NOCO EXPRESS SHOP 58,4590,GENESEE ST          ,CHEEKTOWAGA,NY,14225,4000,"4590 genesee st cheektowaga, ny 14225 42.934555, -78.71668",42.934555,-78.71668
5763,Erie,149833,Store,JAC   ,NOCO EXPRESS LLC                 ,NOCO EXPRESS SHOP 59,2080,ABBOTT RD           ,LACKAWANNA,NY,14218,3000,"2080 abbott rd lackawanna, ny 14218 42.808776, -78.798595",42.808776,-78.798595
5766,Erie,140818,Store,JAC   ,NOCO EXPRESS LLC                 ,NOCO EXPRESS SHOP 74,820,NIAGARA FALLS BLVD   ,TONAWANDA,NY,14223,1800,"820 niagara falls blvd tonawanda, ny 14223 42.976704, -78.82317",42.976704,-78.82317
5767,Erie,140815,Store,JAC   ,NOCO EXPRESS LLC                 ,NOCO EXPRESS SHOP 75,2861,S PARK AVE          ,LACKAWANNA,NY,14218,1600,"2861 s park ave lackawanna, ny 14218 42.822169, -78.824017",42.822169,-78.824017
5768,Erie,142783,Store,JAC   ,ALMAGHREBI WALEED                ,NORTHLAND GROCERY,322,NORTHLAND                    ,BUFFALO,NY,14208,1500,"322 northland buffalo, ny 14208 42.919244, -78.848076",42.919244,-78.848076
5770,Erie,715836,Store,JAC   ,"ABDULLA, MOHAMED TAHER           ",NYC MARKET,2502,BAILEY AVE                  ,BUFFALO,NY,14215,3000,"2502 bailey ave buffalo, ny 14215 42.922827, -78.813682",42.922827,-78.813682
5771,Erie,707479,Store,JAC   ,NY METROPOLITAN DELI INC         ,NY METROPOLITAN DELI,500,ELMWOOD AVE                  ,BUFFALO,NY,14222,1200,"500 elmwood ave buffalo, ny 14222 42.910637, -78.87709",42.910637,-78.87709
5772,Erie,141070,Store,JAC   ,ALARSHI ALI&OMAR HADI A          ,O&A CORNER STORE,257,FOREST AVE                   ,BUFFALO,NY,14213,4000,"257 forest ave buffalo, ny 14213 42.927735, -78.889048",42.927735,-78.889048
5773,Erie,702317,Store,JAC   ,HASSLEBACK EQUIPMENT INC         ,OASIS CONVENIENT,2437,HARLEM RD                   ,BUFFALO,NY,14225,1200,"2437 harlem rd buffalo, ny 14225 42.909817, -78.784356",42.909817,-78.784356
5774,Erie,142508,Store,A     ,BANH THAI QUOC                   ,OD'S,882,NORTHLAND                    ,BUFFALO,NY,14215,1000,"882 northland buffalo, ny 14215 42.918866, -78.826714",42.918866,-78.826714
5777,Erie,142340,Store,A     ,OLLIES BARGAIN OUTLET INC        ,OLLIES BARGAIN OUTLET,2150,WALDEN AVE                  ,CHEEKTOWAGA,NY,14225,39000,"2150 walden ave cheektowaga, ny 14225 42.907317, -78.756354",42.907317,-78.756354
5781,Erie,714513,Store,JAC   ,ONTARIO BEST VALUE INC           ,ONTARIO BEST VALUE,500,ONTARIO ST                   ,BUFFALO,NY,14207,1500,"500 ontario st buffalo, ny 14207 42.957082, -78.896902",42.957082,-78.896902
5782,Erie,142226,Store,JAC   ,FADEL RIDHWAN                    ,ONTARIO EXPRESS,245,ONTARIO ST                   ,BUFFALO,NY,14207,1000,"245 ontario st buffalo, ny 14207 42.951341, -78.902258",42.951341,-78.902258
5783,Erie,733448,Store,JAC   ,SHUBH NY INC                     ,ON THE WAY,2368,HAMBURG TPKE              ,BUFFALO,NY,14218,5000,"2368 hamburg tpke buffalo, ny 14218 42.820023, -78.848091",42.820023,-78.848091
5785,Erie,143054,Store,JAC   ,ORIGINAL FOWLERS CHOCOLATE CO INC,ORIGINAL FOWLERS CHOCOL,746,ELMWOOD AVE          ,BUFFALO,NY,14222,0,"746 elmwood ave buffalo, ny 14222 42.917409, -78.877036",42.917409,-78.877036
5789,Erie,142923,Store,JAC   ,PARK EDGE COMPANY CORP           ,PARK EDGE SWEET SHOPPE,325,ABBOTT RD                    ,BUFFALO,NY,14220,2600,"325 abbott rd buffalo, ny 14220 42.852901, -78.818653",42.852901,-78.818653
5790,Erie,147650,Store,JACH  ,PARKSIDE CANDY CO INC            ,PARKSIDE CANDY,3208,MAIN ST                     ,BUFFALO,NY,14214,25000,"3208 main st buffalo, ny 14214 42.951442, -78.825634",42.951442,-78.825634
5795,Erie,715859,Store,JAC   ,PASTA PEDDLER LLC THE            ,PASTA PEDDLE THE,1547,HERTEL AVE                  ,BUFFALO,NY,14216,2700,"1547 hertel ave buffalo, ny 14216 42.947641, -78.850649",42.947641,-78.850649
5797,Erie,716655,Store,JAC   ,GHASSAN ABDULLA S MOHSIN         ,PERRY FOOD MARKET & GRI,366,PERRY ST                     ,BUFFALO,NY,14204,2700,"366 perry st buffalo, ny 14204 42.873658, -78.863609",42.873658,-78.863609
5798,Erie,142734,Store,A     ,AL BAAGARI ALI M                 ,PETERS FOOD MARKET II,684,LASALLE AVE                  ,BUFFALO,NY,14215,1500,"684 lasalle ave buffalo, ny 14215 42.944948, -78.80672",42.944948,-78.80672
5800,Erie,141019,Store,JAC   ,PHAM TUYEN KIM                   ,PHU THAI,356,CONNECTICUT ST               ,BUFFALO,NY,14213,1200,"356 connecticut st buffalo, ny 14213 42.905838, -78.887714",42.905838,-78.887714
5801,Erie,706229,Store,JAC   ,PIEROGI BY PAULA LLC             ,PIEROGI BY PAULA,999,BROADWAY                     ,BUFFALO,NY,14212,600,"999 broadway buffalo, ny 14212 42.893309, -78.837813",42.893309,-78.837813
5802,Erie,725493,Store,JAC   ,ALI TALAAT O                     ,PIKES PEAK MARKET,1318,FILLMORE AVE                ,BUFFALO,NY,14211,2500,"1318 fillmore ave buffalo, ny 14211 42.9096, -78.839069",42.9096,-78.839069
5803,Erie,141813,Store,JAC   ,OBAID ADEL S                     ,POTOMAC EXPRESS DELI,188,POTOMAC AVE                  ,BUFFALO,NY,14213,1200,"188 potomac ave buffalo, ny 14213 42.92399, -78.892473",42.92399,-78.892473
5805,Erie,731239,Store,JAC   ,PREMIUM COFFEE OF WNY LLC        ,PREMIUM COFFEE OF WNY,2510,HAMBURG TPKE                ,BUFFALO,NY,14218,1600,"2510 hamburg tpke buffalo, ny 14218 42.81694, -78.846591",42.81694,-78.846591
5806,Erie,142568,Store,JAC   ,PRRC INC                         ,PRICE RITE,250,ELMWOOD AVE          ,BUFFALO,NY,14222,44000,"250 elmwood ave buffalo, ny 14222 42.903782, -78.877134",42.903782,-78.877134
5807,Erie,142712,Store,JAC   ,PRRC INC                         ,PRICE RITE,1700-1750,WALDEN AVE     ,CHEEKTOWAGA,NY,14225,37000,"1700 1750 walden ave cheektowaga, ny 14225 42.908182, -78.773946",42.908182,-78.773946
5808,Erie,142620,Store,JAC   ,PRRC INC                         ,PRICE RITE,1716,KENMORE AVE         ,BUFFALO,NY,14216,40000,"1716 kenmore ave buffalo, ny 14216 42.95861, -78.88249",42.95861,-78.88249
5809,Erie,148483,Store,JAC   ,PRICE RITE MARKET INC            ,PRICE RITE MARKET,326,W DELAVAN AVE                ,BUFFALO,NY,14213,2100,"326 w delavan ave buffalo, ny 14213 42.92208, -78.887493",42.92208,-78.887493
5813,Erie,141344,Store,JAC   ,PRIME STOP INC                   ,PRIME STOP,755,E DELAVAN AVE                ,BUFFALO,NY,14215,2500,"755 e delavan ave buffalo, ny 14215 42.922175, -78.828708",42.922175,-78.828708
5814,Erie,721834,Store,JAC   ,BISTA ROSAN                      ,PRODUCE MARKET,487,GRANT ST                     ,BUFFALO,NY,14213,900,"487 grant st buffalo, ny 14213 42.927197, -78.88946",42.927197,-78.88946
5815,Erie,721534,Store,JAC   ,AL SHEIKH JAMIL T                ,PROGRESS FOOD MARKET,289,HAMBURG ST                   ,BUFFALO,NY,14204,1900,"289 hamburg st buffalo, ny 14204 42.871763, -78.858036",42.871763,-78.858036
5817,Erie,142861,Store,A     ,DUBAISHI HUSSEIN S               ,PYRAMID EXPRESS HSD,102,HOYT ST                  ,BUFFALO,NY,14213,1000,"102 hoyt st buffalo, ny 14213 42.918517, -78.886886",42.918517,-78.886886
5818,Erie,729645,Store,JABC  ,MAMA ROSAS KITCHEN LLC           ,QUAKER BONNET BAKERY LL,69,CHENANGO ST                   ,BUFFALO,NY,14213,4000,"69 chenango st buffalo, ny 14213 42.913121, -78.884035",42.913121,-78.884035
5820,Erie,733028,Store,JAC   ,MOOSA MOHAMED                    ,RAINBOW MARKET,3172,BAILEY AVE                  ,BUFFALO,NY,14215,1500,"3172 bailey ave buffalo, ny 14215 42.941075, -78.813656",42.941075,-78.813656
5821,Erie,142586,Store,JAC   ,RAYS CONVENIENT SHOP INC         ,RAYS CONVENIENT SHOP,514,ONTARIO ST                   ,BUFFALO,NY,14207,1200,"514 ontario st buffalo, ny 14207 42.957396, -78.896609",42.957396,-78.896609
5825,Erie,149175,Store,JAC   ,UNITED REFINING CO OF PA INC     ,RED APPLE FD MRT M0327,3724,HARLEM RD                   ,CHEEKTOWAGA,NY,14215,2000,"3724 harlem rd cheektowaga, ny 14215 42.945472, -78.784122",42.945472,-78.784122
5826,Erie,149018,Store,JAC   ,UNITED REFINING CO OF PA INC     ,RED APPLE FD MRT M0329,1779,CLINTON ST                  ,BUFFALO,NY,14206,1000,"1779 clinton st buffalo, ny 14206 42.871903, -78.810877",42.871903,-78.810877
5829,Erie,147160,Store,JACK  ,PAUL REDLINSKI&SONS INC          ,REDLINSKI MEATS,1585,WALDEN AVE                  ,CHEEKTOWAGA,NY,14225,3000,"1585 walden ave cheektowaga, ny 14225 42.906934, -78.779",42.906934,-78.779
5830,Erie,728754,Store,A     ,RED SEA ONE INC                  ,RED SEA ONE,3154,BAILEY AVENUE               ,BUFFALO,NY,14215,1800,"3154 bailey avenue buffalo, ny 14215 42.940703, -78.813649",42.940703,-78.813649
5831,Erie,728841,Store,JAC   ,PULAMI TEK                       ,RENISHA MINI MARKET,289,GRANT AVE              ,BUFFALO,NY,14213,0,"289 grant ave buffalo, ny 14213 42.921864, -78.890154",42.921864,-78.890154
5832,Erie,142580,Store,JACD  ,RD AMERICA LLC                   ,RESTAURANT DEPOT,500,DUKE RD                      ,CHEEKTOWAGA,NY,14225,58000,"500 duke rd cheektowaga, ny 14225 42.904102, -78.76423",42.904102,-78.76423
5833,Erie,731328,Store,JAC   ,BHUTANESE GROCERY STORE LLC      ,RETAIL FOOD STORES,3327,BAILEY AVE            ,BUFFALO,NY,14215,1500,"3327 bailey ave buffalo, ny 14215 42.945473, -78.813675",42.945473,-78.813675
5834,Erie,148696,Store,JAC   ,KHOURY SAMIR&MONA                ,RICOTAS FOOD SHOP,206,ELK ST                       ,BUFFALO,NY,14210,2800,"206 elk st buffalo, ny 14210 42.868522, -78.846304",42.868522,-78.846304
5835,Erie,731975,Store,JAC   ,ALKOMA INC                       ,RIGHT PRICE,2887,BAILEY AVE                  ,BUFFALO,NY,14215,2200,"2887 bailey ave buffalo, ny 14215 42.933394, -78.813656",42.933394,-78.813656
5852,Erie,723597,Store,A     ,ECKERD CORPORATION               ,RITE AID #10824,789,TONAWANDA ST                 ,BUFFALO,NY,14207,2200,"789 tonawanda st buffalo, ny 14207 42.950135, -78.904034",42.950135,-78.904034
5853,Erie,147303,Store,A     ,ECKERD CORP                      ,RITE AID 10825,1625,BROADWAY ST                 ,BUFFALO,NY,14212,2900,"1625 broadway st buffalo, ny 14212 42.896761, -78.814954",42.896761,-78.814954
5854,Erie,140683,Store,A     ,ECKERD CORP                      ,RITE AID 10826,291,W FERRY ST                   ,BUFFALO,NY,14213,15000,"291 w ferry st buffalo, ny 14213 42.91527, -78.890748",42.91527,-78.890748
5855,Erie,140804,Store,A     ,ECKERD CORP                      ,RITE AID 10827,2585,MAIN ST                     ,BUFFALO,NY,14214,14000,"2585 main st buffalo, ny 14214 42.938354, -78.840052",42.938354,-78.840052
5857,Erie,148050,Store,A     ,ECKERD CORP                      ,RITE AID 10830,2175,S PARK AVE                  ,BUFFALO,NY,14220,13000,"2175 s park ave buffalo, ny 14220 42.839321, -78.82379",42.839321,-78.82379
5862,Erie,141244,Store,A     ,ECKERD CORP                      ,RITE AID 10836,2401,GENESEE ST                  ,CHEEKTOWAGA,NY,14225,11000,"2401 genesee st cheektowaga, ny 14225 42.919627, -78.794494",42.919627,-78.794494
5865,Erie,140970,Store,A     ,RITE AID OF NEW YORK INC         ,RITE AID 1194,1941,SENECA ST                   ,BUFFALO,NY,14210,12000,"1941 seneca st buffalo, ny 14210 42.858149, -78.812991",42.858149,-78.812991
5867,Erie,140265,Store,A     ,RITE AID OF NEW YORK INC         ,RITE AID 1511,2474,BAILEY AVE                  ,BUFFALO,NY,14215,10000,"2474 bailey ave buffalo, ny 14215 42.922166, -78.813684",42.922166,-78.813684
5868,Erie,149252,Store,A     ,RITE AID OF NEW YORK INC         ,RITE AID 1652,2315,WILLIAM ST                  ,BUFFALO,NY,14206,5000,"2315 william st buffalo, ny 14206 42.884354, -78.784853",42.884354,-78.784853
5869,Erie,140704,Store,A     ,RITE AID OF NEW YORK INC         ,RITE AID 1677,476,WILLIAM ST                   ,BUFFALO,NY,14206,9600,"476 william st buffalo, ny 14206 42.885162, -78.8534",42.885162,-78.8534
5870,Erie,141026,Store,A     ,RITE AID OF NEW YORK INC         ,RITE AID 1816,845,ABBOTT RD                    ,BUFFALO,NY,14220,12000,"845 abbott rd buffalo, ny 14220 42.841548, -78.808601",42.841548,-78.808601
5871,Erie,142828,Store,A     ,RITE AID OF NEW YORK INC         ,RITE AID #1910,2047,SHERIDAN DR                 ,BUFFALO,NY,14223,14753,"2047 sheridan dr buffalo, ny 14223 42.980795, -78.858041",42.980795,-78.858041
5872,Erie,140698,Store,A     ,RITE AID OF NEW YORK INC         ,RITE AID 2448,1070,GENESEE ST                  ,BUFFALO,NY,14211,11000,"1070 genesee st buffalo, ny 14211 42.902706, -78.838361",42.902706,-78.838361
5875,Erie,140067,Store,A     ,RITE AID OF NEW YORK INC         ,RITE AID 3521,1410,DELAWARE AVE                ,BUFFALO,NY,14209,6000,"1410 delaware ave buffalo, ny 14209 42.922683, -78.867347",42.922683,-78.867347
5883,Erie,147441,Store,A     ,RITE AID OF NEW YORK INC         ,RITE AID 565,452,MAIN ST                      ,BUFFALO,NY,14202,2900,"452 main st buffalo, ny 14202 42.886283, -78.874178",42.886283,-78.874178
5884,Erie,149343,Store,A     ,RITE AID OF NEW YORK INC         ,RITE AID PHAMRACY 01962,284,CONNECTICUT ST               ,BUFFALO,NY,14213,6000,"284 connecticut st buffalo, ny 14213 42.904871, -78.889635",42.904871,-78.889635
5885,Erie,147948,Store,A     ,RITE AID OF NEW YORK INC         ,RITE AID PHARMACY 00499,424,ELMWOOD AVE                  ,BUFFALO,NY,14222,4000,"424 elmwood ave buffalo, ny 14222 42.9087, -78.877109",42.9087,-78.877109
5886,Erie,140555,Store,A     ,RITE AID OF NEW YORK INC         ,RITE AID PHARMACY 00761,2887,HARLEM RD                   ,CHEEKTOWAGA,NY,14225,20000,"2887 harlem rd cheektowaga, ny 14225 42.921794, -78.784243",42.921794,-78.784243
5888,Erie,140957,Store,A     ,RITE AID OF NEW YORK INC         ,RITE AID PHARMACY 01674,3950,UNION RD                    ,CHEEKTOWAGA,NY,14225,9900,"3950 union rd cheektowaga, ny 14225 42.921758, -78.754142",42.921758,-78.754142
5889,Erie,140612,Store,A     ,RITE AID OF NEW YORK INC         ,RITE AID PHARMACY 01689,3071-3085,S PARK AVE             ,LACKAWANNA,NY,14218,8500,"3071 3085 s park ave lackawanna, ny 14218 42.816167, -78.824",42.816167,-78.824
5890,Erie,149270,Store,A     ,RITE AID OF NEW YORK INC         ,RITE AID PHARMACY 01807,1224,EAST LOVEJOY ST             ,BUFFALO,NY,14206,5000,"1224 east lovejoy st buffalo, ny 14206 42.889759, -78.802898",42.889759,-78.802898
5892,Erie,142496,Store,JAC   ,RIVERSIDE DELI LLC               ,RIVERSIDE DELI,897,TONAWANDA ST                 ,BUFFALO,NY,14207,1000,"897 tonawanda st buffalo, ny 14207 42.953059, -78.905543",42.953059,-78.905543
5893,Erie,142523,Store,JAC   ,RIVERSIDE EXPRESS MART INC       ,RIVERSIDE EXPRESS MART,550,TONAWANDA ST                 ,BUFFALO,NY,14207,1000,"550 tonawanda st buffalo, ny 14207 42.944044, -78.900888",42.944044,-78.900888
5894,Erie,142665,Store,JAC   ,BJK FOOD INC                     ,RIVERSIDE MARKET,740,TONAWANDA ST                 ,BUFFALO,NY,14207,4000,"740 tonawanda st buffalo, ny 14207 42.949042, -78.903468",42.949042,-78.903468
5901,Erie,708632,Store,JAC   ,S&A MINI MART INC                ,S&A MINI MART,1338,ELECTRIC AVE                ,BUFFALO,NY,14218,500,"1338 electric ave buffalo, ny 14218 42.822758, -78.827836",42.822758,-78.827836
5902,Erie,707449,Store,JAC   ,ALFAQIH SAMEER A                 ,SAMMY'S METRO DELI & GR,1381,MAIN ST                     ,BUFFALO,NY,14209,1900,"1381 main st buffalo, ny 14209 42.911138, -78.865968",42.911138,-78.865968
5903,Erie,149914,Store,JABC  ,SAMS EAST INC                    ,SAMS CLUB 6673,3735,UNION RD                    ,CHEEKTOWAGA,NY,14225,136000,"3735 union rd cheektowaga, ny 14225 42.914388, -78.754219",42.914388,-78.754219
5904,Erie,141051,Store,A     ,ABDELLATIF LAITH H               ,SAMS EXPRESS MART,880,FILLMORE AVE                 ,BUFFALO,NY,14212,2000,"880 fillmore ave buffalo, ny 14212 42.897223, -78.839282",42.897223,-78.839282
5905,Erie,724442,Store,A     ,NAGI BADRADDIN                   ,SAMS QUICK STOP,352,WALDEN AVE                   ,BUFFALO,NY,14211,1000,"352 walden ave buffalo, ny 14211 42.903629, -78.822998",42.903629,-78.822998
5907,Erie,140726,Store,JACD  ,SAUSAGE MAKER INC THE            ,SAUSAGE MAKER THE,1500,CLINTON ST BLDG 123         ,BUFFALO,NY,14206,10000,"1500 clinton st buffalo, ny 14206 42.872438, -78.821025",42.872438,-78.821025
5909,Erie,703857,Store,JAC   ,142 GRANT ST LLC                 ,SAVE A LOT,142,GRANT ST                     ,BUFFALO,NY,14213,9000,"142 grant st buffalo, ny 14213 42.917881, -78.890665",42.917881,-78.890665
5911,Erie,140162,Store,JAC   ,HORRIGAN SONS INC                ,SAVE A LOT,999,BROADWAY                     ,BUFFALO,NY,14212,17000,"999 broadway buffalo, ny 14212 42.893309, -78.837813",42.893309,-78.837813
5912,Erie,141141,Store,JAC   ,HORRIGAN SONS ROSSLER INC        ,SAVE A LOT,77,S ROSSLER ST                  ,CHEEKTOWAGA,NY,14206,20000,"77 s rossler st cheektowaga, ny 14206 42.874543, -78.794924",42.874543,-78.794924
5913,Erie,707202,Store,JAC   ,TUYEN KIM PHAM                   ,SAVE A LOT,4144,UNION RD                    ,BUFFALO,NY,14225,11000,"4144 union rd buffalo, ny 14225 42.928793, -78.754139",42.928793,-78.754139
5916,Erie,141157,Store,JAC   ,HOUCHENS FOOD GROUP INC          ,SAVE A LOT 312,2160,GENESEE ST                  ,BUFFALO,NY,14211,16000,"2160 genesee st buffalo, ny 14211 42.916952, -78.802947",42.916952,-78.802947
5917,Erie,140853,Store,JAC   ,HOUCHENS FOOD GROUP INC          ,SAVE A LOT 313,284,ONTARIO ST                   ,BUFFALO,NY,14207,25000,"284 ontario st buffalo, ny 14207 42.95236, -78.901307",42.95236,-78.901307
5919,Erie,712883,Store,JAC   ,ALI TOWFFEEK G                   ,SAVE MORE DELI & GROCER,1591,S PARK AVE                  ,BUFFALO,NY,14220,500,"1591 s park ave buffalo, ny 14220 42.854944, -78.827639",42.854944,-78.827639
5928,Erie,142513,Store,JAC   ,RITE PRICE MARKET INC            ,SCIMES SAUSAGE,2484,DELAWARE AVE                ,BUFFALO,NY,14216,5000,"2484 delaware ave buffalo, ny 14216 42.951838, -78.868917",42.951838,-78.868917
5929,Erie,720632,Store,JAC   ,S & C MART INC                   ,S & C MART,490,CONNECTICUT ST               ,BUFFALO,NY,14213,3000,"490 connecticut st buffalo, ny 14213 42.908102, -78.883239",42.908102,-78.883239
5930,Erie,149649,Store,JAC   ,SENECA FOOD MART INC             ,SENECA FOOD MART,1199,SENECA ST                   ,BUFFALO,NY,14210,2000,"1199 seneca st buffalo, ny 14210 42.870474, -78.834165",42.870474,-78.834165
5936,Erie,142209,Store,A     ,KOZAKIEWICZ APRIL L              ,SHERMAN DELI,819,GENESSEE ST                  ,BUFFALO,NY,14211,1000,"819 genessee st buffalo, ny 14211 42.89923, -78.846659",42.89923,-78.846659
5937,Erie,729477,Store,JAC   ,SUSHI WITH GUSTO INC             ,SHIZEN,1678,HERTEL AVE                  ,BUFFALO,NY,14216,900,"1678 hertel ave buffalo, ny 14216 42.947612, -78.845626",42.947612,-78.845626
5938,Erie,730089,Store,JAC   ,SAKTHY FOOD CORP                 ,SHOP FRESH,300,KENMORE AVE                  ,BUFFALO,NY,14223,1316,"300 kenmore ave buffalo, ny 14223 42.958233, -78.829512",42.958233,-78.829512
5939,Erie,141620,Store,A     ,SHOP N GO INC                    ,SHOP N GO,984,JEFFERSON AVE                ,BUFFALO,NY,14204,1200,"984 jefferson ave buffalo, ny 14204 42.901946, -78.853971",42.901946,-78.853971
5941,Erie,734820,Store,JAC   ,SHOP N SAVE INC                  ,SHOP N SAVE,490,CONNECTICUT ST               ,BUFFALO,NY,14213,0,"490 connecticut st buffalo, ny 14213 42.908102, -78.883239",42.908102,-78.883239
5942,Erie,724537,Store,JAC   ,SHOPPERS MARKET INC              ,SHOPPERS MARKET,1799,GENESEE STREET              ,BUFFALO,NY,14211,2000,"1799 genesee street buffalo, ny 14211 42.912086, -78.815082",42.912086,-78.815082
5945,Erie,142025,Store,JAC   ,BUFFALO SAV INC                  ,SLAVIC BAZZAR,1550,WILLIAM ST                  ,BUFFALO,NY,14206,1200,"1550 william st buffalo, ny 14206 42.88477, -78.813431",42.88477,-78.813431
5947,Erie,140643,Store,JAC   ,SLOAN SUPER MARKET INC           ,SLOAN SUPER MARKET,494,REIMAN ST                    ,BUFFALO,NY,14212,4800,"494 reiman st buffalo, ny 14212 42.895522, -78.790776",42.895522,-78.790776
5948,Erie,721029,Store,A     ,KD PETROLEUM INC                 ,SMILEY'S CONVENIENCE ST,1211,COLVIN BLVD                 ,BUFFALO,NY,14223,1150,"1211 colvin blvd buffalo, ny 14223 42.97411, -78.858401",42.97411,-78.858401
5949,Erie,711435,Store,JAC   ,BEKELE TEKESTE M                 ,S&M MARKET,179,MILITARY RD                  ,BUFFALO,NY,14207,600,"179 military rd buffalo, ny 14207 42.941638, -78.891912",42.941638,-78.891912
5950,Erie,142830,Store,JAC   ,SNAP MART OF BUFFALO INC         ,SNAP MART OF BUFFALO,2183,GENESEE ST                  ,BUFFALO,NY,14211,2000,"2183 genesee st buffalo, ny 14211 42.917142, -78.802472",42.917142,-78.802472
5951,Erie,723651,Store,JAC   ,SUBEDI NARAYAN & DHITAL SOM      ,SN GROCERY,139,VERMONT ST                   ,BUFFALO,NY,14213,1000,"139 vermont st buffalo, ny 14213 42.905558, -78.892856",42.905558,-78.892856
5952,Erie,725979,Store,JAC   ,SNOWY OWL KOMBUCHA LLC           ,SNOWY OWL KOMBUCHA,65,VANDALIA ST                   ,BUFFALO,NY,14204,550,"65 vandalia st buffalo, ny 14204 42.866419, -78.861162",42.866419,-78.861162
5954,Erie,141071,Store,JAC   ,ALHAMRI INC                      ,SOUTH PARK EXPRESS MKT,3045,S PARK AVE                  ,LACKAWANNA,NY,14218,4000,"3045 s park ave lackawanna, ny 14218 42.817328, -78.824005",42.817328,-78.824005
5955,Erie,728042,Store,JAC   ,SOUTH PARK MART INC              ,SOUTH PARK MART,2082,SOUTH PARK AVE              ,BUFFALO,NY,14220,1200,"2082 south park ave buffalo, ny 14220 42.841822, -78.823754",42.841822,-78.823754
5956,Erie,723919,Store,JAC   ,2540 S PARK AVENUE LLC           ,SOUTH PARK MOBIL,2540,S PARK AVE                  ,BUFFALO,NY,14218,800,"2540 s park ave buffalo, ny 14218 42.830728, -78.823925",42.830728,-78.823925
5957,Erie,706345,Store,JAC   ,ALI TOWFFEEK G                   ,SOUTH PARK PIZZA & GROC,1727,S PARK AVE                  ,BUFFALO,NY,14220,1200,"1727 s park ave buffalo, ny 14220 42.85167, -78.825215",42.85167,-78.825215
5959,Erie,142134,Store,JAC   ,JK EXPERIENCE INC                ,SPARS EUROPN SAUSAGE&MT,405,AMHERST ST                   ,BUFFALO,NY,14207,3000,"405 amherst st buffalo, ny 14207 42.938627, -78.888792",42.938627,-78.888792
5964,Erie,728649,Store,JAC   ,3083 MAIN ST INC                 ,S&S DELI,3083,MAIN ST                     ,BUFFALO,NY,14214,1200,"3083 main st buffalo, ny 14214 42.948621, -78.828685",42.948621,-78.828685
5968,Erie,729740,Store,A     ,AL FAHD AHLAM                    ,STAR MARKET,210,DEWEY AVE                    ,BUFFALO,NY,14214,2000,"210 dewey ave buffalo, ny 14214 42.931326, -78.839514",42.931326,-78.839514
5969,Erie,140937,Store,A     ,MUTHANA AREF & ALGAGHMANI EIAD   ,STEFFIES FOOD MARKET,1592,ELMWOOD AVE                 ,BUFFALO,NY,14207,1000,"1592 elmwood ave buffalo, ny 14207 42.940076, -78.878643",42.940076,-78.878643
5971,Erie,140865,Store,JAC   ,STEVES MEATS INC                 ,STEVES MEATS,1314,E DELAVAN AVE               ,BUFFALO,NY,14215,5000,"1314 e delavan ave buffalo, ny 14215 42.922712, -78.80811",42.922712,-78.80811
5977,Erie,732200,Store,JAC   ,7 ELEVEN INC                     ,SUNOCO #40182H,2731,DELAWARE AVE                ,BUFFALO,NY,14216,2200,"2731 delaware ave buffalo, ny 14216 42.958327, -78.869514",42.958327,-78.869514
5980,Erie,724760,Store,JAC   ,SUNOCO RETAIL LLC                ,SUNOCO #7222,1329,ABBOT RD                    ,BUFFALO,NY,14218,800,"1329 abbot rd buffalo, ny 14218 42.828841, -78.804611",42.828841,-78.804611
5982,Erie,149957,Store,JAC   ,ABYSS INC                        ,SUNOCO A PLUS,1301,HERTEL AVE                  ,BUFFALO,NY,14216,1500,"1301 hertel ave buffalo, ny 14216 42.947735, -78.85949",42.947735,-78.85949
5984,Erie,140341,Store,JAC   ,OBSIDO AAA INC                   ,SUNOCO A PLUS,1390,DELAWARE AVE                ,BUFFALO,NY,14209,1400,"1390 delaware ave buffalo, ny 14209 42.921942, -78.867416",42.921942,-78.867416
5987,Erie,714619,Store,JAC   ,WASEL A MUJAMAL & NAJIB A ALAWOI ,SUNOCO SUPER MART,1266,E DELEVAN AVE               ,BUFFALO,NY,14215,1100,"1266 e delevan ave buffalo, ny 14215 42.922699, -78.810039",42.922699,-78.810039
5988,Erie,142601,Store,JAC   ,SUNRISE MINI MART INC            ,SUNRISE FOOD MARKET,108,WILLIAM ST                   ,BUFFALO,NY,14204,1400,"108 william st buffalo, ny 14204 42.885093, -78.867487",42.885093,-78.867487
5989,Erie,713153,Store,JAC   ,SUNRISE MINI MART 2 INC          ,SUNRISE MINI MART II,375,MICHIGAN AVE                 ,BUFFALO,NY,14204,2100,"375 michigan ave buffalo, ny 14204 42.882626, -78.868759",42.882626,-78.868759
5991,Erie,141983,Store,A     ,BLENDONOHY JULIA N               ,SUPERIOR FOOD KING,1084,CLINTON ST                  ,BUFFALO,NY,14206,1500,"1084 clinton st buffalo, ny 14206 42.877737, -78.83479",42.877737,-78.83479
5992,Erie,733294,Store,JAC   ,SUPERMARKET INC                  ,SUPERMARKET,143,WALDEN AVENUE                ,BUFFALO,NY,14211,1600,"143 walden avenue buffalo, ny 14211 42.903558, -78.83088",42.903558,-78.83088
5993,Erie,724761,Store,JAC   ,SUPER PRICE CHOPPER MEATS INC    ,SUPER PRICE CHOPPER MEA,1588,GENESEE STREET              ,BUFFALO,NY,14211,14000,"1588 genesee street buffalo, ny 14211 42.90952, -78.821483",42.90952,-78.821483
5994,Erie,727276,Store,JAC   ,SUPER SAVER MINI MART INC        ,SUPER SAVER MINI MART,1482,BROADWAY                    ,BUFFALO,NY,14212,2000,"1482 broadway buffalo, ny 14212 42.896123, -78.82024",42.896123,-78.82024
5995,Erie,709887,Store,A     ,SUPER STOP GAS & FOOD INC        ,SUPER STOP GAS & FOOD,1547,BROADWAY ST                 ,BUFFALO,NY,14212,0,"1547 broadway st buffalo, ny 14212 42.896479, -78.817476",42.896479,-78.817476
5997,Erie,142691,Store,JAC   ,NASSER AHMED                     ,SWAN STREET FOODS,357,SWAN ST                      ,BUFFALO,NY,14204,1500,"357 swan st buffalo, ny 14204 42.879547, -78.862352",42.879547,-78.862352
6000,Erie,721853,Store,JAC   ,SYCAMORE HALAL MEAT & FISH MARKET,SYCAMORE HALAL MEAT & F,1064,SYCAMORE ST                 ,BUFFALO,NY,14212,1500,"1064 sycamore st buffalo, ny 14212 42.899809, -78.832393",42.899809,-78.832393
6003,Erie,140730,Store,JABC  ,TARGET CORPORATION               ,TARGET 1013,2626,DELAWARE AVE                ,BUFFALO,NY,14216,117000,"2626 delaware ave buffalo, ny 14216 42.955127, -78.86926",42.955127,-78.86926
6004,Erie,140734,Store,JABC  ,TARGET CORPORATION               ,TARGET 1014,1750,WALDEN AVE                  ,CHEEKTOWAGA,NY,14225,105000,"1750 walden ave cheektowaga, ny 14225 42.908741, -78.771947",42.908741,-78.771947
6010,Erie,141852,Store,A     ,ALEZI YOUSIF AHMAD               ,TEXAS GAS & CONVENIENT,473,E DELAVAN AVE                ,BUFFALO,NY,14214,1500,"473 e delavan ave buffalo, ny 14214 42.921849, -78.839545",42.921849,-78.839545
6011,Erie,732596,Store,JAC   ,T & F 1345 INC                   ,T & F 1345,1345,E DELAVAN AVE               ,BUFFALO,NY,14215,2500,"1345 e delavan ave buffalo, ny 14215 42.92272, -78.807296",42.92272,-78.807296
6012,Erie,734626,Store,JAC   ,HIRSCH SCOTT M                   ,THAT POPCORN SHACK,1112,KENMORE AVE                 ,BUFFALO,NY,14216,1500,"1112 kenmore ave buffalo, ny 14216 42.958661, -78.859283",42.958661,-78.859283
6016,Erie,725069,Store,JAC   ,ELVISH FANTASIES INC             ,THINKING ELVISH FANTASY,423,ELMWOOD AVE              ,BUFFALO,NY,14222,1000,"423 elmwood ave buffalo, ny 14222 42.908616, -78.877109",42.908616,-78.877109
6020,Erie,729934,Store,JAC   ,SR FAHIM INC.                    ,TIP TOP EXPRESS CONVENI,441,FILLMORE AVENUE-UNIT 2       ,BUFFALO,NY,14206,2000,"441 fillmore avenue buffalo, ny 14206 42.885518, -78.839221",42.885518,-78.839221
6027,Erie,140955,Store,JABC  ,TOPS MARKETS LLC                 ,TOPS 131,700,THRUWAY PLAZA DR             ,CHEEKTOWAGA,NY,14225,55000,"700 thruway plaza dr cheektowaga, ny 14225 42.90368, -78.782062",42.90368,-78.782062
6028,Erie,141274,Store,JABC  ,TOPS MARKETS LLC                 ,TOPS 202,3865,UNION RD                    ,CHEEKTOWAGA,NY,14225,80500,"3865 union rd cheektowaga, ny 14225 42.92012, -78.754142",42.92012,-78.754142
6030,Erie,149431,Store,JABC  ,TOPS MARKETS LLC                 ,TOPS 210,345,AMHERST ST                   ,BUFFALO,NY,14207,84000,"345 amherst st buffalo, ny 14207 42.937902, -78.89081",42.937902,-78.89081
6032,Erie,143530,Store,JABC  ,TOPS MARKETS LLC                 ,TOPS 213,1460,S PARK AVE                  ,BUFFALO,NY,14220,62200,"1460 s park ave buffalo, ny 14220 42.857479, -78.830329",42.857479,-78.830329
6035,Erie,146782,Store,JABC  ,TOPS MARKETS LLC                 ,TOPS 222,1770,BROADWAY AT BAILEY AVE      ,BUFFALO,NY,14212,44000,"1770 broadway at bailey ave buffalo, ny 14212",,
6040,Erie,149514,Store,JABC  ,TOPS MARKETS LLC                 ,TOPS 232,2101,ELMWOOD AVE                 ,BUFFALO,NY,14207,84000,"2101 elmwood ave buffalo, ny 14207 42.9549, -78.878251",42.9549,-78.878251
6043,Erie,141057,Store,JABC  ,TOPS MARKETS LLC                 ,TOPS 239,1740,SHERIDAN DR                 ,BUFFALO,NY,14223,56000,"1740 sheridan dr buffalo, ny 14223 42.98095, -78.87039",42.98095,-78.87039
6047,Erie,142826,Store,JAC   ,TOPS MARKETS LLC                 ,TOPS 44,3870,HARLEM RD                   ,CHEEKTOWAGA,NY,14215,30000,"3870 harlem rd cheektowaga, ny 14215 42.948849, -78.784073",42.948849,-78.784073
6049,Erie,142728,Store,JABC  ,2125 SENECA INC                  ,TOPS 66,1989,SENECA ST                   ,BUFFALO,NY,14210,15000,"1989 seneca st buffalo, ny 14210 42.857255, -78.811952",42.857255,-78.811952
6054,Erie,141534,Store,JABC  ,TOPS MARKETS LLC                 ,TOPS MARKETS 250,1275,JEFFERSON AVE               ,BUFFALO,NY,14208,29000,"1275 jefferson ave buffalo, ny 14208 42.909776, -78.853986",42.909776,-78.853986
6066,Erie,142164,Store,JAC   ,TRADE FAIR MART INC              ,TRADE FAIR FOOD MART #2,364,EGGERT RD                    ,BUFFALO,NY,14215,2000,"364 eggert rd buffalo, ny 14215 42.937084, -78.799019",42.937084,-78.799019
6067,Erie,711457,Store,JAC   ,TRADE FOOD MARKET & DELI INC     ,TRADE FOOD MARKET & DEL,169,WILKES BARRE ST              ,BUFFALO,NY,14218,1000,"169 wilkes barre st buffalo, ny 14218 42.822331, -78.84334",42.822331,-78.84334
6072,Erie,732210,Store,A     ,AHMED KERDA S                    ,TWIN CITY MARKET,454,E UTICA ST                   ,BUFFALO,NY,14208,1200,"454 e utica st buffalo, ny 14208 42.911052, -78.84894",42.911052,-78.84894
6077,Erie,728310,Store,JAC   ,UNITED DELI INC                  ,UNITED DELI,161,DEERFIELD AVE                ,BUFFALO,NY,14215,0,"161 deerfield ave buffalo, ny 14215 42.926843, -78.826743",42.926843,-78.826743
6078,Erie,142422,Store,JAC   ,UNITED EXPRESS MART INC          ,UNITED EXPRESS MART,1047,GENESEE ST                  ,BUFFALO,NY,14211,1500,"1047 genesee st buffalo, ny 14211 42.902142, -78.839704",42.902142,-78.839704
6080,Erie,140636,Store,A     ,MUSED MOHAMED A                  ,UNITED SUPERMARKET,1114,BROADWAY                    ,BUFFALO,NY,14212,2000,"1114 broadway buffalo, ny 14212 42.894174, -78.83367",42.894174,-78.83367
6081,Erie,142047,Store,JAC   ,UNIVERSAL FOOD MART INC          ,UNIVERSAL MARKET,1266,GENESEE ST              ,BUFFALO,NY,14211,3150,"1266 genesee st buffalo, ny 14211 42.905126, -78.832454",42.905126,-78.832454
6083,Erie,720620,Store,A     ,UNLIMITED FASHION & BEAUTY INC   ,UNLIMTED MINI MART,354,NIAGARA FALLS BLVD           ,BUFFALO,NY,14223,2000,"354 niagara falls blvd buffalo, ny 14223 42.963817, -78.823594",42.963817,-78.823594
6084,Erie,734314,Store,A     ,HUSSEIN ALDUBAISHI               ,UP TO YOU DELI,2189,NIAGARA ST                  ,BUFFALO,NY,14207,2000,"2189 niagara st buffalo, ny 14207 42.943701, -78.906982",42.943701,-78.906982
6085,Erie,140824,Store,JACD  ,US FOODS INC                     ,US FOODS BUFFALO,1500,CLINTON ST                  ,BUFFALO,NY,14206,60000,"1500 clinton st buffalo, ny 14206 42.872438, -78.821025",42.872438,-78.821025
6087,Erie,142480,Store,JAC   ,FOOD PORT ENTERPRISES INC        ,VALERO,1225,BROADWAY ST                 ,BUFFALO,NY,14212,1000,"1225 broadway st buffalo, ny 14212 42.894735, -78.830009",42.894735,-78.830009
6091,Erie,142411,Store,JAC   ,WESTON MELVIN L & LOUISE M       ,VILLAGE BEER MERCHANT,547,ELMWOOD AVE                  ,BUFFALO,NY,14222,2500,"547 elmwood ave buffalo, ny 14222 42.911895, -78.877074",42.911895,-78.877074
6094,Erie,704882,Store,JAC   ,VINEETA INTERNATIONAL FOODS CORP ,VINEETA INTERNATIONAL F,98,GRANT STREET                  ,BUFFALO,NY,14213,9000,"98 grant street buffalo, ny 14213 42.916576, -78.890541",42.916576,-78.890541
6095,Erie,719231,Store,JAC   ,VULCAN EXPRESS MART INC          ,VULCAN EXPRESS MART,132,VULCAN ST                    ,BUFFALO,NY,14207,2500,"132 vulcan st buffalo, ny 14207 42.959268, -78.908471",42.959268,-78.908471
6096,Erie,142941,Store,JAC   ,VULCAN MINI MART INC             ,VULCAN MINI MART,90,VULCAN ST                     ,BUFFALO,NY,14207,900,"90 vulcan st buffalo, ny 14207 42.959032, -78.908793",42.959032,-78.908793
6098,Erie,141750,Store,JAC   ,NASIR MOHAMMAD                   ,WALDEN CONVENIENT STORE,599,WALDEN AVE                   ,BUFFALO,NY,14211,1500,"599 walden ave buffalo, ny 14211 42.904794, -78.814271",42.904794,-78.814271
6099,Erie,706224,Store,JAC   ,WALDEN EXPRESS MART INC          ,WALDEN EXPRESS MART,290,WALDEN AVE                   ,BUFFALO,NY,14211,1200,"290 walden ave buffalo, ny 14211 42.903478, -78.825087",42.903478,-78.825087
6100,Erie,141982,Store,JAC   ,BEST HALAL INC                   ,WALDEN GROCERIES,57,WALDEN AVE            ,BUFFALO,NY,14211,1000,"57 walden ave buffalo, ny 14211 42.903595, -78.834054",42.903595,-78.834054
6103,Erie,140585,Store,A     ,WALGREEN EASTERN CO INC          ,WALGREENS 03857,3488,MAIN ST                     ,BUFFALO,NY,14214,10000,"3488 main st buffalo, ny 14214 42.957372, -78.819052",42.957372,-78.819052
6118,Erie,140497,Store,A     ,WALGREEN EASTERN CO INC          ,WALGREENS 3257,1328,ABBOTT RD                   ,LACKAWANNA,NY,14218,20000,"1328 abbott rd lackawanna, ny 14218 42.828313, -78.804444",42.828313,-78.804444
6120,Erie,140344,Store,A     ,WALGREEN EASTERN CO INC          ,WALGREENS 3288,650,DELAWARE AVE                 ,BUFFALO,NY,14202,5000,"650 delaware ave buffalo, ny 14202 42.90209, -78.873063",42.90209,-78.873063
6121,Erie,140242,Store,A     ,WALGREEN EASTERN CO INC          ,WALGREENS #3290,1556,HERTEL AVE                  ,BUFFALO,NY,14216,10000,"1556 hertel ave buffalo, ny 14216 42.94764, -78.850568",42.94764,-78.850568
6128,Erie,722105,Store,JAC   ,WALMART STORES INC               ,WALMART #2586,2500,WALDEN AVE                  ,BUFFALO,NY,14225,190000,"2500 walden ave buffalo, ny 14225 42.908354, -78.742926",42.908354,-78.742926
6131,Erie,140107,Store,A     ,BERNOLAK GEORGE E                ,WALTERS FOOD MARKET,178,THOMPSON ST                  ,BUFFALO,NY,14207,2500,"178 thompson st buffalo, ny 14207 42.938983, -78.900437",42.938983,-78.900437
6132,Erie,142426,Store,JAC   ,KHOURY VICTOR                    ,WASHINGTON MARKET THE,461,ELLICOTT ST                  ,BUFFALO,NY,14203,6400,"461 ellicott st buffalo, ny 14203 42.891041, -78.870275",42.891041,-78.870275
6136,Erie,142572,Store,JAC   ,KSS ENTERPRISES INC              ,WATSONS CHOCOLATES,738,ELMWOOD AVE                  ,BUFFALO,NY,14222,670,"738 elmwood ave buffalo, ny 14222 42.917187, -78.877039",42.917187,-78.877039
6146,Erie,140671,Store,JABC  ,WEGMANS FOOD MARKETS INC         ,WEGMANS 91,601,AMHERST ST                   ,BUFFALO,NY,14207,98000,"601 amherst st buffalo, ny 14207 42.940404, -78.883824",42.940404,-78.883824
6149,Erie,713285,Store,JAC   ,ALHAMBRA HOLDING INC             ,WEST END MARKET,321,RIDGE RD                     ,BUFFALO,NY,14218,1800,"321 ridge rd buffalo, ny 14218 42.826702, -78.839618",42.826702,-78.839618
6150,Erie,140966,Store,JAC   ,ALI MOHSIN F                     ,WEST MARKET,1032,WEST AVE                    ,BUFFALO,NY,14213,3000,"1032 west ave buffalo, ny 14213 42.918415, -78.897053",42.918415,-78.897053
6152,Erie,147731,Store,JAC   ,D&L BAKERY INC                   ,WHITE EAGLE BAKERY,999,BROADWAY STAND 115     ,BUFFALO,NY,14212,800,"999 broadway buffalo, ny 14212 42.893309, -78.837813",42.893309,-78.837813
6154,Erie,141985,Store,JAC   ,WILLERT PARK FOOD MARKET LLC     ,WILLERT PARK FOOD MKT,473,JEFFERSON AVE                ,BUFFALO,NY,14204,1900,"473 jefferson ave buffalo, ny 14204 42.887929, -78.853954",42.887929,-78.853954
6155,Erie,140190,Store,JAM   ,GHORAB MOHSSEN E                 ,WILLIAM MINI MART,654-658,WILLIAM ST               ,BUFFALO,NY,14206,1000,"654 658 william st buffalo, ny 14206 42.885103, -78.847138",42.885103,-78.847138
6156,Erie,140606,Store,JAC   ,WILLIAMS-SONOMA INC              ,WILLIAMS-SONOMA,,GALLERIA MALL  G113          ,CHEEKTOWAGA,NY,14225,2500,,,
6158,Erie,726784,Store,JAC   ,SOE LWIN & SAN NAN H             ,WIN ASIAN MARKET,113,GRANT STREET                 ,BUFFALO,NY,14213,1200,"113 grant street buffalo, ny 14213 42.917059, -78.890595",42.917059,-78.890595
6159,Erie,710653,Store,JAC   ,WNY BROTHER'S ENTERPRISES INC    ,W. N. Y  BROTHER'S ENTE,950,EAST FERRY ST                ,BUFFALO,NY,14211,1500,"950 east ferry st buffalo, ny 14211 42.914498, -78.828912",42.914498,-78.828912
6160,Erie,723719,Store,JACH  ,WNY FUN FOODS INC                ,WNY FUN FOODS,456,HINMAN AVE                   ,BUFFALO,NY,14216,6000,"456 hinman ave buffalo, ny 14216 42.956518, -78.886709",42.956518,-78.886709
6161,Erie,142559,Store,JAC   ,ABUHAMRA AHMED M                 ,WNY PETRO,155,JEFFERSON AVE                ,BUFFALO,NY,14210,3000,"155 jefferson ave buffalo, ny 14210 42.87926, -78.854263",42.87926,-78.854263
6163,Erie,719145,Store,JAC   ,SNEAKERTOWN SYRACUSE CORP        ,WOORI MART,850,NIAGARA FALLS BOULEVARD      ,BUFFALO,NY,14223,0,"850 niagara falls boulevard buffalo, ny 14223 42.977209, -78.823158",42.977209,-78.823158
6164,Erie,734066,Store,JAC   ,KORNOWSKI PAUL                   ,XANDER MART,50,DELAWARE AVE                ,BUFFALO,NY,14202,200,"50 delaware ave buffalo, ny 14202 42.885477, -78.879011",42.885477,-78.879011
6165,Erie,142431,Store,JAC   ,YASIN ENTERPRISE INC             ,YASIN ENTERPRISE,1044,GRANT ST                    ,BUFFALO,NY,14207,1000,"1044 grant st buffalo, ny 14207 42.940567, -78.891457",42.940567,-78.891457
6166,Erie,733967,Store,JAC   ,YEAH PIEROGI LLC                 ,YEAH PIEROGI,69,CHENANGO ST               ,BUFFALO,NY,14213,300,"69 chenango st buffalo, ny 14213 42.913121, -78.884035",42.913121,-78.884035
6168,Erie,141249,Store,A     ,ALGUMAEI MUFEED A                ,Y&J MINI MART,553,E AMHERST ST                 ,BUFFALO,NY,14215,1500,"553 e amherst st buffalo, ny 14215 42.940175, -78.817137",42.940175,-78.817137
6169,Erie,727596,Store,JAC   ,YOUSEF MARKET INC                ,YOUSEF MARKET,1148,E FERRY STREET              ,BUFFALO,NY,14211,0,"1148 e ferry street buffalo, ny 14211 42.914559, -78.821314",42.914559,-78.821314
6170,Erie,142141,Store,JAC   ,AHMED MOHAMMED A                 ,ZACKS MARKET,260,RHODE ISLAND ST              ,BUFFALO,NY,14213,800,"260 rhode island st buffalo, ny 14213 42.90885, -78.891",42.90885,-78.891
6171,Erie,705686,Store,JAC   ,ZAKRZEWSKI DENNIS                ,ZAKS SNACKS,462,GRIDER ST                ,BUFFALO,NY,14215,250,"462 grider st buffalo, ny 14215 42.927236, -78.829151",42.927236,-78.829151
6173,Erie,724065,Store,JAC   ,ZUBAIDAH ENTERPRISES INC         ,ZUBAIDAH HALAL MEAT AND,59,WALDEN AVE                    ,BUFFALO,NY,14211,2500,"59 walden ave buffalo, ny 14211 42.903594, -78.833941",42.903594,-78.833941
